{"type":"FeatureCollection","features":[{"id":"0","type":"Feature","properties":{"admin_code":"05","name":"Zona 5","area_km2":5.391996},"geometry":{"type":"Polygon","coordinates":[[[-90.491489,14.622082],[-90.492162,14.620453],[-90.494977,14.619701],[-90.495359,14.618578],[-90.501641,14.614882],[-90.502973,14.612701],[-90.513594,14.615288],[-90.511859,14.62275],[-90.515045,14.623235],[-90.514803,14.625083],[-90.512945,14.625075],[-90.509823,14.627711],[-90.508808,14.627587],[-90.508721,14.626136],[-90.507336,14.626101],[-90.501306,14.631274],[-90.499844,14.631063],[-90.499152,14.637739],[-90.495529,14.637725],[-90.495154,14.640253],[-90.492356,14.640825],[-90.492431,14.643014],[-90.490846,14.644133],[-90.489722,14.647199],[-90.487862,14.647321],[-90.486524,14.646715],[-90.485869,14.643293],[-90.488416,14.639259],[-90.487849,14.637335],[-90.488902,14.635958],[-90.485856,14.628506],[-90.487854,14.625923],[-90.488432,14.623276],[-90.491489,14.622082]]]}},{"id":"1","type":"Feature","properties":{"admin_code":"11","name":"Zona 11","area_km2":11.410239},"geometry":{"type":"Polygon","coordinates":[[[-90.572394,14.627909],[-90.570199,14.633024],[-90.540797,14.617343],[-90.536207,14.614624],[-90.53517,14.613238],[-90.557709,14.594366],[-90.561656,14.58847],[-90.56272,14.588916],[-90.56488,14.588159],[-90.568018,14.584165],[-90.569329,14.583466],[-90.569795,14.58166],[-90.57228,14.581258],[-90.573594,14.579632],[-90.573715,14.577938],[-90.575798,14.576123],[-90.57622,14.574092],[-90.577877,14.572629],[-90.579145,14.572713],[-90.579852,14.571192],[-90.580851,14.571749],[-90.581485,14.573793],[-90.580064,14.575024],[-90.580773,14.576969],[-90.579443,14.578814],[-90.578566,14.57929],[-90.577988,14.578703],[-90.576496,14.579695],[-90.576184,14.581978],[-90.574709,14.582662],[-90.574371,14.586982],[-90.573476,14.587655],[-90.573258,14.593872],[-90.571618,14.59436],[-90.571124,14.596194],[-90.569715,14.597332],[-90.569825,14.598469],[-90.566802,14.600369],[-90.566619,14.603127],[-90.568198,14.604106],[-90.568529,14.606869],[-90.567938,14.608265],[-90.568694,14.609418],[-90.56761,14.611251],[-90.569656,14.614805],[-90.570627,14.61823],[-90.571641,14.619088],[-90.570083,14.621351],[-90.570165,14.627354],[-90.572394,14.627909]]]}},{"id":"2","type":"Feature","properties":{"admin_code":"25","name":"Zona 25","area_km2":30.912027},"geometry":{"type":"Polygon","coordinates":[[[-90.422598,14.649232],[-90.422465,14.647407],[-90.42449,14.645215],[-90.426664,14.644318],[-90.431195,14.647149],[-90.429906,14.64745],[-90.42976,14.648121],[-90.431545,14.648699],[-90.431349,14.649642],[-90.433686,14.649493],[-90.430005,14.651298],[-90.428698,14.65348],[-90.420288,14.661838],[-90.417666,14.670605],[-90.416434,14.672502],[-90.41636,14.674301],[-90.415391,14.67623],[-90.413051,14.677877],[-90.412357,14.680985],[-90.40765,14.685154],[-90.402104,14.686489],[-90.398027,14.691284],[-90.396118,14.694462],[-90.396397,14.69708],[-90.395572,14.699955],[-90.397496,14.702615],[-90.397567,14.703919],[-90.396292,14.704897],[-90.395051,14.704631],[-90.391134,14.700323],[-90.38916,14.699552],[-90.387466,14.687566],[-90.387866,14.68434],[-90.386602,14.684754],[-90.385746,14.684191],[-90.386432,14.682484],[-90.385346,14.67858],[-90.386297,14.677028],[-90.385879,14.676391],[-90.387652,14.675347],[-90.386904,14.674061],[-90.387442,14.673266],[-90.388864,14.673423],[-90.3887,14.672484],[-90.389813,14.671541],[-90.38903,14.669301],[-90.390235,14.668471],[-90.389935,14.66512],[-90.387654,14.663475],[-90.388195,14.662607],[-90.38634,14.657858],[-90.387203,14.65629],[-90.388315,14.656016],[-90.387714,14.654254],[-90.389943,14.647998],[-90.388465,14.646467],[-90.389208,14.644153],[-90.387338,14.644161],[-90.387749,14.642422],[-90.387056,14.640096],[-90.388347,14.638433],[-90.38729,14.637115],[-90.388242,14.63581],[-90.386765,14.634732],[-90.388308,14.634637],[-90.39235,14.637087],[-90.396888,14.636912],[-90.398879,14.635802],[-90.399153,14.633958],[-90.395423,14.630559],[-90.396353,14.629544],[-90.3964,14.628095],[-90.398167,14.626893],[-90.400683,14.61949],[-90.403314,14.616918],[-90.4029,14.614838],[-90.404163,14.61434],[-90.403345,14.61183],[-90.404972,14.610057],[-90.402754,14.604588],[-90.408482,14.601444],[-90.413272,14.597215],[-90.411286,14.594865],[-90.413246,14.591265],[-90.416141,14.58835],[-90.418458,14.589574],[-90.424562,14.595716],[-90.425639,14.594841],[-90.427128,14.594834],[-90.425083,14.596336],[-90.421857,14.601085],[-90.419068,14.601716],[-90.418151,14.60265],[-90.417972,14.604951],[-90.415709,14.607762],[-90.415125,14.610214],[-90.413194,14.611378],[-90.413001,14.612596],[-90.413055,14.61453],[-90.415747,14.615641],[-90.4161,14.617615],[-90.417317,14.617785],[-90.419258,14.620318],[-90.417506,14.621519],[-90.417275,14.622893],[-90.420768,14.625533],[-90.422826,14.625867],[-90.423948,14.624983],[-90.425326,14.626354],[-90.425739,14.628336],[-90.428286,14.629043],[-90.426638,14.630882],[-90.426515,14.633988],[-90.425775,14.635139],[-90.427475,14.636344],[-90.426474,14.637463],[-90.427747,14.637901],[-90.427385,14.64157],[-90.421859,14.646995],[-90.422598,14.649232]]]}},{"id":"3","type":"Feature","properties":{"admin_code":"15","name":"Zona 15","area_km2":9.416545},"geometry":{"type":"Polygon","coordinates":[[[-90.484618,14.591134],[-90.481491,14.588011],[-90.476718,14.587126],[-90.470903,14.582536],[-90.470373,14.575437],[-90.47099,14.572733],[-90.472983,14.572455],[-90.4745,14.57134],[-90.476515,14.571595],[-90.481431,14.5671],[-90.480908,14.565061],[-90.479469,14.564527],[-90.479671,14.563553],[-90.478448,14.56243],[-90.47918,14.562382],[-90.47912,14.560135],[-90.482185,14.558089],[-90.487795,14.56184],[-90.487182,14.56352],[-90.487269,14.564135],[-90.488091,14.564141],[-90.487173,14.564897],[-90.487415,14.568889],[-90.488466,14.569428],[-90.488183,14.572054],[-90.490032,14.574953],[-90.490151,14.576514],[-90.488095,14.579229],[-90.485591,14.577713],[-90.486359,14.579541],[-90.493218,14.583677],[-90.493965,14.584647],[-90.493874,14.586186],[-90.495144,14.586125],[-90.496583,14.587735],[-90.497028,14.589808],[-90.498656,14.592229],[-90.498162,14.59348],[-90.500531,14.594822],[-90.500937,14.599934],[-90.502626,14.600292],[-90.502988,14.601162],[-90.503177,14.604134],[-90.502465,14.605455],[-90.502958,14.607901],[-90.50444,14.609942],[-90.504136,14.611073],[-90.501641,14.614882],[-90.495359,14.618578],[-90.494977,14.619701],[-90.492162,14.620453],[-90.491793,14.618697],[-90.493263,14.616098],[-90.49505,14.614888],[-90.495716,14.612259],[-90.495223,14.61175],[-90.495793,14.610467],[-90.495537,14.606869],[-90.494474,14.60871],[-90.493148,14.609235],[-90.48649,14.607555],[-90.486037,14.605954],[-90.487386,14.604278],[-90.485952,14.602764],[-90.484977,14.600015],[-90.486069,14.599884],[-90.485402,14.597296],[-90.487536,14.596733],[-90.487492,14.595552],[-90.486428,14.595051],[-90.484999,14.593123],[-90.484618,14.591134]]]}},{"id":"4","type":"Feature","properties":{"admin_code":"10","name":"Zona 10","area_km2":5.487667},"geometry":{"type":"Polygon","coordinates":[[[-90.513726,14.615109],[-90.502788,14.612703],[-90.504441,14.609945],[-90.502679,14.607167],[-90.502991,14.601178],[-90.502626,14.600292],[-90.500934,14.599927],[-90.501231,14.597869],[-90.500455,14.594678],[-90.498164,14.593483],[-90.498657,14.592233],[-90.497026,14.589804],[-90.497303,14.58894],[-90.495144,14.586125],[-90.493874,14.586186],[-90.49362,14.584039],[-90.488977,14.580747],[-90.486766,14.579985],[-90.485591,14.577713],[-90.487208,14.579127],[-90.488463,14.579039],[-90.489186,14.577339],[-90.490065,14.576958],[-90.489808,14.57493],[-90.497713,14.580662],[-90.50092,14.584184],[-90.507025,14.58762],[-90.513094,14.58991],[-90.517718,14.5934],[-90.513726,14.615109]]]}},{"id":"5","type":"Feature","properties":{"admin_code":"01","name":"Zona 1","area_km2":6.440245},"geometry":{"type":"Polygon","coordinates":[[[-90.520062,14.621753],[-90.522017,14.624424],[-90.52405,14.623373],[-90.52143,14.643648],[-90.519988,14.649292],[-90.507451,14.647056],[-90.503787,14.648057],[-90.493892,14.644153],[-90.490884,14.644484],[-90.491445,14.643247],[-90.492431,14.643014],[-90.492366,14.640812],[-90.495281,14.640095],[-90.495534,14.637721],[-90.499152,14.637739],[-90.499931,14.630991],[-90.501306,14.631274],[-90.507336,14.626101],[-90.508721,14.626136],[-90.508808,14.627587],[-90.509823,14.627711],[-90.513191,14.624974],[-90.517917,14.625226],[-90.520062,14.621753]]]}}]}