{"type":"FeatureCollection","features":[{"id":"6","type":"Feature","properties":{"admin_code":"08","name":"Zona 8","area_km2":1.314046},"geometry":{"type":"Polygon","coordinates":[[[-90.522017,14.624424],[-90.520062,14.621753],[-90.523723,14.617121],[-90.525306,14.612681],[-90.526868,14.610596],[-90.525478,14.610329],[-90.528501,14.603823],[-90.535234,14.613196],[-90.530647,14.616102],[-90.522017,14.624424]]]}},{"id":"7","type":"Feature","properties":{"admin_code":"02","name":"Zona 2","area_km2":8.493523},"geometry":{"type":"Polygon","coordinates":[[[-90.507379,14.68358],[-90.496232,14.682557],[-90.494173,14.680419],[-90.493569,14.679119],[-90.493803,14.676848],[-90.492901,14.676691],[-90.494358,14.672423],[-90.500276,14.669753],[-90.500498,14.667717],[-90.498966,14.666038],[-90.499626,14.661745],[-90.49887,14.659183],[-90.501055,14.658956],[-90.501532,14.658129],[-90.500949,14.653339],[-90.501973,14.652919],[-90.502641,14.650987],[-90.503422,14.65107],[-90.503783,14.648056],[-90.507451,14.647056],[-90.520132,14.649311],[-90.521001,14.650312],[-90.518955,14.652834],[-90.518955,14.658122],[-90.520044,14.660038],[-90.519304,14.66049],[-90.519178,14.663958],[-90.518028,14.666114],[-90.518856,14.667375],[-90.518246,14.669782],[-90.518618,14.672224],[-90.518053,14.672595],[-90.519411,14.674569],[-90.519689,14.676723],[-90.516533,14.680456],[-90.51458,14.680635],[-90.514375,14.68265],[-90.511781,14.682784],[-90.51055,14.684726],[-90.507379,14.68358]]]}},{"id":"8","type":"Feature","properties":{"admin_code":"12","name":"Zona 12","area_km2":12.125507},"geometry":{"type":"Polygon","coordinates":[[[-90.536143,14.596439],[-90.53497,14.590823],[-90.535349,14.583714],[-90.536756,14.581254],[-90.536684,14.579891],[-90.538268,14.57836],[-90.538554,14.575949],[-90.537471,14.575246],[-90.538272,14.574425],[-90.538798,14.570504],[-90.540003,14.569698],[-90.539743,14.568954],[-90.541216,14.567087],[-90.540123,14.56536],[-90.540626,14.563748],[-90.540111,14.562696],[-90.537141,14.562484],[-90.534959,14.559667],[-90.54199,14.560584],[-90.542608,14.55682],[-90.545515,14.558507],[-90.546648,14.561236],[-90.548715,14.556197],[-90.550081,14.555413],[-90.55243,14.556032],[-90.551286,14.55843],[-90.556986,14.559416],[-90.559908,14.558345],[-90.559391,14.5631],[-90.557225,14.566231],[-90.557893,14.566614],[-90.557437,14.567682],[-90.558446,14.568258],[-90.55815,14.569666],[-90.559331,14.570503],[-90.558127,14.572995],[-90.558692,14.573014],[-90.558877,14.574854],[-90.56038,14.576228],[-90.560121,14.577057],[-90.560946,14.577908],[-90.560242,14.579123],[-90.560677,14.580684],[-90.559732,14.581269],[-90.559851,14.583544],[-90.55856,14.585794],[-90.561656,14.58847],[-90.557709,14.594366],[-90.535234,14.613196],[-90.532287,14.609605],[-90.5308,14.606508],[-90.534349,14.60545],[-90.535292,14.604422],[-90.533399,14.602636],[-90.536143,14.60062],[-90.536143,14.596439]]]}},{"id":"9","type":"Feature","properties":{"admin_code":"21","name":"Zona 21","area_km2":5.515989},"geometry":{"type":"Polygon","coordinates":[[[-90.535291,14.557641],[-90.53311,14.555487],[-90.532695,14.55217],[-90.530398,14.551017],[-90.529942,14.550001],[-90.531414,14.54857],[-90.532237,14.544133],[-90.535848,14.536465],[-90.553413,14.539042],[-90.554675,14.53944],[-90.554281,14.541756],[-90.55753,14.542506],[-90.555462,14.547249],[-90.55678,14.550308],[-90.556715,14.552088],[-90.55243,14.556032],[-90.550154,14.555411],[-90.54906,14.555797],[-90.546648,14.561236],[-90.545864,14.558964],[-90.543527,14.557056],[-90.542608,14.55682],[-90.54199,14.560584],[-90.534959,14.559667],[-90.534584,14.558243],[-90.535291,14.557641]]]}},{"id":"10","type":"Feature","properties":{"admin_code":"16","name":"Zona 16","area_km2":19.745826},"geometry":{"type":"Polygon","coordinates":[[[-90.481491,14.588011],[-90.484618,14.591134],[-90.484999,14.593123],[-90.486428,14.595051],[-90.487492,14.595552],[-90.487536,14.596733],[-90.485402,14.597296],[-90.486069,14.599884],[-90.484977,14.600015],[-90.485952,14.602764],[-90.487386,14.604278],[-90.486037,14.605954],[-90.48649,14.607555],[-90.492987,14.609247],[-90.494474,14.60871],[-90.495345,14.606913],[-90.49573,14.607499],[-90.49505,14.614888],[-90.493898,14.615362],[-90.491819,14.618283],[-90.492024,14.621689],[-90.488478,14.623223],[-90.487854,14.625923],[-90.485894,14.628381],[-90.487332,14.632462],[-90.485959,14.63338],[-90.484374,14.631531],[-90.479583,14.632447],[-90.476879,14.631417],[-90.473501,14.625319],[-90.468403,14.628066],[-90.466039,14.628],[-90.46534,14.630194],[-90.465841,14.631446],[-90.46494,14.632196],[-90.465109,14.633269],[-90.46355,14.636019],[-90.463633,14.640982],[-90.459103,14.640699],[-90.456174,14.637393],[-90.453607,14.637574],[-90.452924,14.636841],[-90.452984,14.635099],[-90.454512,14.631815],[-90.453415,14.630841],[-90.452705,14.62778],[-90.45362,14.624618],[-90.455982,14.621271],[-90.456869,14.607755],[-90.453606,14.605944],[-90.44976,14.607649],[-90.446153,14.60582],[-90.445212,14.604144],[-90.445659,14.601167],[-90.447568,14.598711],[-90.448563,14.591059],[-90.451766,14.58646],[-90.456003,14.587355],[-90.459317,14.589662],[-90.459632,14.590726],[-90.462361,14.590367],[-90.46693,14.588049],[-90.471206,14.584013],[-90.470987,14.582619],[-90.476718,14.587126],[-90.481491,14.588011]]]}},{"id":"11","type":"Feature","properties":{"admin_code":"17","name":"Zona 17","area_km2":9.961942},"geometry":{"type":"Polygon","coordinates":[[[-90.422411,14.647504],[-90.422491,14.6493],[-90.421859,14.646995],[-90.426199,14.643054],[-90.429107,14.644386],[-90.430878,14.644268],[-90.431962,14.640672],[-90.433893,14.639611],[-90.436309,14.639754],[-90.436872,14.640702],[-90.439897,14.640443],[-90.443143,14.64211],[-90.445872,14.642072],[-90.447372,14.641614],[-90.44897,14.639868],[-90.449997,14.639909],[-90.451509,14.638044],[-90.453324,14.638376],[-90.453279,14.637497],[-90.455192,14.637037],[-90.459103,14.640699],[-90.463633,14.640982],[-90.46355,14.636019],[-90.465109,14.633269],[-90.46494,14.632196],[-90.465841,14.631446],[-90.46534,14.630194],[-90.466039,14.628],[-90.468403,14.628066],[-90.473501,14.625319],[-90.476879,14.631417],[-90.479583,14.632447],[-90.484374,14.631531],[-90.485959,14.63338],[-90.487332,14.632462],[-90.488897,14.63592],[-90.487849,14.637338],[-90.488409,14.639276],[-90.486056,14.642344],[-90.48624,14.645745],[-90.487051,14.64711],[-90.48547,14.649129],[-90.476268,14.648156],[-90.474156,14.648502],[-90.471748,14.650647],[-90.470716,14.654725],[-90.468085,14.656165],[-90.46369,14.655625],[-90.457809,14.652891],[-90.453279,14.651776],[-90.448613,14.648299],[-90.44192,14.647539],[-90.439115,14.648621],[-90.436156,14.647815],[-90.433686,14.649493],[-90.431422,14.649673],[-90.431545,14.648699],[-90.42976,14.648121],[-90.429906,14.64745],[-90.431193,14.647147],[-90.426664,14.644318],[-90.42449,14.645215],[-90.422411,14.647504]]]}}]}