{"type":"FeatureCollection","features":[{"id":"18","type":"Feature","properties":{"admin_code":"06","name":"Zona 6","area_km2":6.655874},"geometry":{"type":"Polygon","coordinates":[[[-90.491422,14.68205],[-90.484141,14.682685],[-90.479954,14.682052],[-90.479258,14.679364],[-90.48084,14.678094],[-90.480452,14.676952],[-90.481467,14.67623],[-90.480285,14.675991],[-90.480301,14.675045],[-90.478787,14.673554],[-90.478474,14.670688],[-90.479789,14.668149],[-90.480941,14.667935],[-90.480574,14.666508],[-90.48205,14.66519],[-90.481746,14.663754],[-90.482858,14.661542],[-90.482858,14.659035],[-90.484708,14.656969],[-90.484664,14.654735],[-90.486406,14.652909],[-90.485408,14.651218],[-90.485678,14.648411],[-90.487136,14.647022],[-90.48969,14.647232],[-90.490884,14.644484],[-90.493892,14.644153],[-90.503783,14.648056],[-90.503484,14.650752],[-90.500949,14.653339],[-90.501532,14.658129],[-90.501055,14.658956],[-90.49887,14.659183],[-90.499626,14.661745],[-90.498966,14.666038],[-90.500498,14.667717],[-90.500276,14.669753],[-90.494358,14.672423],[-90.493121,14.674841],[-90.492907,14.676729],[-90.493814,14.6769],[-90.493569,14.679119],[-90.496367,14.682788],[-90.496316,14.686177],[-90.493412,14.683191],[-90.491422,14.68205]]]}},{"id":"19","type":"Feature","properties":{"admin_code":"18","name":"Zona 18","area_km2":43.644332},"geometry":{"type":"Polygon","coordinates":[[[-90.474111,14.691192],[-90.473098,14.693549],[-90.470336,14.696549],[-90.467034,14.697241],[-90.466173,14.698919],[-90.464592,14.698421],[-90.460889,14.700036],[-90.460374,14.702265],[-90.458797,14.703681],[-90.458025,14.706371],[-90.455669,14.708137],[-90.45564,14.709411],[-90.454243,14.709659],[-90.451217,14.70605],[-90.448555,14.704977],[-90.446562,14.707048],[-90.440614,14.707096],[-90.440834,14.712568],[-90.439945,14.713492],[-90.438526,14.710055],[-90.437673,14.710226],[-90.435997,14.708399],[-90.433475,14.707529],[-90.429902,14.707456],[-90.426728,14.704542],[-90.42632,14.70285],[-90.42484,14.703195],[-90.418953,14.702037],[-90.415548,14.709011],[-90.4044,14.699141],[-90.4029,14.700075],[-90.402174,14.702008],[-90.400572,14.702789],[-90.400777,14.703504],[-90.399055,14.706099],[-90.396717,14.706593],[-90.392764,14.705316],[-90.392368,14.704396],[-90.393513,14.703088],[-90.395507,14.704837],[-90.397306,14.704323],[-90.397491,14.702609],[-90.395562,14.700236],[-90.396328,14.693933],[-90.401942,14.686607],[-90.40765,14.685154],[-90.412357,14.680985],[-90.413051,14.677877],[-90.415391,14.67623],[-90.41636,14.674301],[-90.416434,14.672502],[-90.417666,14.670605],[-90.420288,14.661838],[-90.428698,14.65348],[-90.430005,14.651298],[-90.43304,14.650087],[-90.435989,14.647835],[-90.439115,14.648621],[-90.44192,14.647539],[-90.448613,14.648299],[-90.45321,14.651748],[-90.457809,14.652891],[-90.46369,14.655625],[-90.467553,14.656203],[-90.47068,14.654769],[-90.471748,14.650647],[-90.474156,14.648502],[-90.476268,14.648156],[-90.485464,14.649135],[-90.485408,14.651218],[-90.486406,14.652909],[-90.484664,14.654735],[-90.484708,14.656969],[-90.482858,14.659035],[-90.482858,14.661542],[-90.481746,14.663754],[-90.48205,14.66519],[-90.480574,14.666508],[-90.480941,14.667935],[-90.479789,14.668149],[-90.478474,14.670688],[-90.478787,14.673554],[-90.480301,14.675045],[-90.480285,14.675991],[-90.481467,14.67623],[-90.480452,14.676952],[-90.48084,14.678094],[-90.479224,14.679736],[-90.480013,14.682274],[-90.479225,14.682595],[-90.480876,14.684215],[-90.48091,14.685657],[-90.479599,14.686142],[-90.480389,14.687169],[-90.480129,14.68822],[-90.477024,14.688865],[-90.474111,14.691192]]]}},{"id":"20","type":"Feature","properties":{"admin_code":"09","name":"Zona 9","area_km2":2.41611},"geometry":{"type":"Polygon","coordinates":[[[-90.524322,14.615863],[-90.513961,14.613973],[-90.517639,14.593794],[-90.521901,14.595926],[-90.528501,14.603823],[-90.525478,14.610329],[-90.526868,14.610596],[-90.525306,14.612681],[-90.524322,14.615863]]]}},{"id":"21","type":"Feature","properties":{"admin_code":"24","name":"Zona 24","area_km2":17.616526},"geometry":{"type":"Polygon","coordinates":[[[-90.448563,14.591059],[-90.447568,14.598711],[-90.445659,14.601167],[-90.445212,14.604144],[-90.446153,14.60582],[-90.448662,14.606586],[-90.44952,14.607555],[-90.453658,14.605946],[-90.45627,14.606993],[-90.457244,14.608997],[-90.455982,14.621271],[-90.45362,14.624618],[-90.452705,14.62778],[-90.453415,14.630841],[-90.454512,14.631815],[-90.452982,14.635109],[-90.453418,14.638328],[-90.451509,14.638044],[-90.449997,14.639909],[-90.44897,14.639868],[-90.447372,14.641614],[-90.445872,14.642072],[-90.443143,14.64211],[-90.439897,14.640443],[-90.436872,14.640702],[-90.436309,14.639754],[-90.433883,14.639613],[-90.431962,14.640672],[-90.430883,14.644263],[-90.429084,14.64438],[-90.426423,14.643137],[-90.427385,14.64157],[-90.427827,14.638496],[-90.427633,14.63773],[-90.426501,14.637661],[-90.427475,14.636344],[-90.427192,14.635635],[-90.425775,14.635139],[-90.426515,14.633988],[-90.426638,14.630882],[-90.428286,14.629043],[-90.425739,14.628336],[-90.425326,14.626354],[-90.423948,14.624983],[-90.422826,14.625867],[-90.420768,14.625533],[-90.417275,14.622893],[-90.417506,14.621519],[-90.419258,14.620318],[-90.417317,14.617785],[-90.4161,14.617615],[-90.415747,14.615641],[-90.413055,14.61453],[-90.41312,14.611569],[-90.415198,14.610093],[-90.415709,14.607762],[-90.418064,14.60476],[-90.418151,14.60265],[-90.423263,14.59981],[-90.423605,14.59824],[-90.426391,14.595122],[-90.428413,14.594885],[-90.428881,14.594204],[-90.43042,14.595202],[-90.442834,14.594349],[-90.448563,14.591059]]]}}]}