{"type":"FeatureCollection","features":[{"id":"12","type":"Feature","properties":{"admin_code":"14","name":"Zona 14","area_km2":4.698201},"geometry":{"type":"Polygon","coordinates":[[[-90.514889,14.591056],[-90.501279,14.584413],[-90.497713,14.580662],[-90.492321,14.577259],[-90.488198,14.57209],[-90.488534,14.569623],[-90.487442,14.568975],[-90.487189,14.565923],[-90.488299,14.566499],[-90.488337,14.568292],[-90.489371,14.568923],[-90.489977,14.572032],[-90.490747,14.572036],[-90.491246,14.573868],[-90.493075,14.574732],[-90.492924,14.575614],[-90.497054,14.576599],[-90.499503,14.575785],[-90.503021,14.576329],[-90.503565,14.575828],[-90.506934,14.577256],[-90.510482,14.576092],[-90.510817,14.57512],[-90.512927,14.573968],[-90.51486,14.574458],[-90.516277,14.573796],[-90.518034,14.571764],[-90.518898,14.568349],[-90.521805,14.565588],[-90.52221,14.563343],[-90.523211,14.563381],[-90.523118,14.562594],[-90.52381,14.562384],[-90.524535,14.563709],[-90.52408,14.564848],[-90.525186,14.566352],[-90.525272,14.568089],[-90.524266,14.569924],[-90.525225,14.570868],[-90.524907,14.572868],[-90.522996,14.576866],[-90.517718,14.5934],[-90.514889,14.591056]]]}},{"id":"13","type":"Feature","properties":{"admin_code":"03","name":"Zona 3","area_km2":4.15695},"geometry":{"type":"Polygon","coordinates":[[[-90.519853,14.659634],[-90.518955,14.658122],[-90.518928,14.653077],[-90.521001,14.650312],[-90.519904,14.649557],[-90.520729,14.647852],[-90.523234,14.631704],[-90.52405,14.623373],[-90.523524,14.6233],[-90.530647,14.616102],[-90.53517,14.613238],[-90.536351,14.614728],[-90.532824,14.617201],[-90.535189,14.618002],[-90.534008,14.621063],[-90.532798,14.62175],[-90.533993,14.624552],[-90.531858,14.629736],[-90.532117,14.632371],[-90.534091,14.635389],[-90.531436,14.638651],[-90.532583,14.639676],[-90.531287,14.640928],[-90.532314,14.643235],[-90.530106,14.64583],[-90.529927,14.647007],[-90.528389,14.646676],[-90.52583,14.648154],[-90.526117,14.65028],[-90.525444,14.650569],[-90.526145,14.651744],[-90.525038,14.65566],[-90.522827,14.656351],[-90.521275,14.658287],[-90.520242,14.658382],[-90.52063,14.659415],[-90.519853,14.659634]]]}},{"id":"14","type":"Feature","properties":{"admin_code":"04","name":"Zona 4","area_km2":1.012386},"geometry":{"type":"Polygon","coordinates":[[[-90.517442,14.62542],[-90.514797,14.625133],[-90.515045,14.623235],[-90.511859,14.62275],[-90.513961,14.613973],[-90.524322,14.615863],[-90.517442,14.62542]]]}},{"id":"15","type":"Feature","properties":{"admin_code":"13","name":"Zona 13","area_km2":8.128548},"geometry":{"type":"Polygon","coordinates":[[[-90.53311,14.555487],[-90.535291,14.557641],[-90.534548,14.558988],[-90.535356,14.560827],[-90.537233,14.562535],[-90.540111,14.562696],[-90.540626,14.563748],[-90.540123,14.56536],[-90.541217,14.567118],[-90.539743,14.568954],[-90.540003,14.569698],[-90.538798,14.570504],[-90.538272,14.574425],[-90.537471,14.575246],[-90.538554,14.575949],[-90.538268,14.57836],[-90.536646,14.579963],[-90.536756,14.581254],[-90.535174,14.584791],[-90.53497,14.590823],[-90.535964,14.594786],[-90.536143,14.60062],[-90.533399,14.602636],[-90.535292,14.604422],[-90.534349,14.60545],[-90.5308,14.606508],[-90.521901,14.595926],[-90.517575,14.593703],[-90.519085,14.590566],[-90.522996,14.576866],[-90.524907,14.572868],[-90.525225,14.570868],[-90.524266,14.569924],[-90.525328,14.567833],[-90.525155,14.566191],[-90.52408,14.564848],[-90.524535,14.563709],[-90.523884,14.562096],[-90.528233,14.556025],[-90.529969,14.55036],[-90.532695,14.55217],[-90.53311,14.555487]]]}},{"id":"16","type":"Feature","properties":{"admin_code":"07","name":"Zona 7","area_km2":12.726778},"geometry":{"type":"Polygon","coordinates":[[[-90.570396,14.633072],[-90.570208,14.634553],[-90.567591,14.634374],[-90.571682,14.63493],[-90.567725,14.638244],[-90.566803,14.640077],[-90.563247,14.637309],[-90.565535,14.639619],[-90.564202,14.640919],[-90.556768,14.641631],[-90.5561,14.639483],[-90.553328,14.640697],[-90.553685,14.642847],[-90.555407,14.643118],[-90.554873,14.645317],[-90.55142,14.646049],[-90.549529,14.647234],[-90.544153,14.647696],[-90.541057,14.646612],[-90.538379,14.648061],[-90.537232,14.651057],[-90.534642,14.652384],[-90.533242,14.65463],[-90.532512,14.65695],[-90.533014,14.658431],[-90.532506,14.661377],[-90.531618,14.661739],[-90.53157,14.663174],[-90.529183,14.66571],[-90.525953,14.665934],[-90.524144,14.66796],[-90.524143,14.668913],[-90.527361,14.670496],[-90.528051,14.672537],[-90.526425,14.67286],[-90.524398,14.67531],[-90.519695,14.676606],[-90.519411,14.674569],[-90.518052,14.67258],[-90.518618,14.672224],[-90.518246,14.669782],[-90.518856,14.667375],[-90.51803,14.666079],[-90.519178,14.663958],[-90.519304,14.66049],[-90.52063,14.659415],[-90.520329,14.658306],[-90.521275,14.658287],[-90.522827,14.656351],[-90.525038,14.65566],[-90.526145,14.651744],[-90.525444,14.650569],[-90.526117,14.65028],[-90.52583,14.648154],[-90.528389,14.646676],[-90.530049,14.646862],[-90.530106,14.64583],[-90.53236,14.643085],[-90.531287,14.640928],[-90.532583,14.639676],[-90.531436,14.638651],[-90.534083,14.635467],[-90.531715,14.631138],[-90.533993,14.624552],[-90.532798,14.62175],[-90.534008,14.621063],[-90.535189,14.618002],[-90.53286,14.617126],[-90.536351,14.614728],[-90.570396,14.633072]]]}},{"id":"17","type":"Feature","properties":{"admin_code":"19","name":"Zona 19","area_km2":1.067503},"geometry":{"type":"Polygon","coordinates":[[[-90.587141,14.653452],[-90.572553,14.663209],[-90.570142,14.658359],[-90.583087,14.649723],[-90.586228,14.651899],[-90.587141,14.653452]]]}}]}