{"type":"FeatureCollection","features":[{"type":"Feature","geometry":{"type":"MultiPolygon","coordinates":[[[[-90.444495,16.072842],[-90.4362,16.062437],[-90.42384,16.068326],[-90.419189,16.062166],[-90.427701,16.055497],[-90.434116,16.044119],[-90.426112,16.032722],[-90.440533,16.02881],[-90.445552,16.016959],[-90.459233,16.013358],[-90.465683,16.004254],[-90.474363,16.004311],[-90.47941,16.017071],[-90.490103,16.012056],[-90.499963,15.992259],[-90.523377,15.990887],[-90.536896,16.002136],[-90.557981,15.994267],[-90.568693,15.998031],[-90.577679,16.006751],[-90.594009,16.013818],[-90.596206,16.03253],[-90.600906,16.03601],[-90.61343,16.023582],[-90.622768,16.028016],[-90.634271,16.039712],[-90.658523,16.035381],[-90.669416,16.038542],[-90.68231,16.021651],[-90.701717,16.015121],[-90.696066,16.007377],[-90.694673,15.994189],[-90.706842,15.995025],[-90.703363,15.972231],[-90.713582,15.973218],[-90.725943,15.981712],[-90.73635,15.981277],[-90.736146,15.969813],[-90.748194,15.96743],[-90.758527,15.96124],[-90.747108,15.942837],[-90.734642,15.942729],[-90.737136,15.928156],[-90.752558,15.915206],[-90.752113,15.900602],[-90.758164,15.882761],[-90.745206,15.884932],[-90.736878,15.880413],[-90.738717,15.867838],[-90.730048,15.859106],[-90.753496,15.832774],[-90.768156,15.828843],[-90.773122,15.816522],[-90.779161,15.812927],[-90.776736,15.797631],[-90.794282,15.781177],[-90.794933,15.773987],[-90.809242,15.767156],[-90.814336,15.74235],[-90.803788,15.739929],[-90.793953,15.746804],[-90.783467,15.740856],[-90.778835,15.723768],[-90.783302,15.717971],[-90.77116,15.704076],[-90.778966,15.701179],[-90.791158,15.689196],[-90.793605,15.678019],[-90.774225,15.675313],[-90.754859,15.667052],[-90.720255,15.657148],[-90.714949,15.657093],[-90.686183,15.647262],[-90.667804,15.649677],[-90.655609,15.647614],[-90.657689,15.638053],[-90.645303,15.632656],[-90.645279,15.62276],[-90.637915,15.611231],[-90.630573,15.609896],[-90.632511,15.591447],[-90.64162,15.581495],[-90.631954,15.574005],[-90.622847,15.572841],[-90.613255,15.554298],[-90.607938,15.537269],[-90.604207,15.504228],[-90.618602,15.49919],[-90.631361,15.486233],[-90.639989,15.482905],[-90.64384,15.472529],[-90.65107,15.467129],[-90.650432,15.446026],[-90.662765,15.434329],[-90.67713,15.43996],[-90.702058,15.442186],[-90.717749,15.418847],[-90.713836,15.388175],[-90.695315,15.365094],[-90.683435,15.36075],[-90.662965,15.35897],[-90.653116,15.35116],[-90.621627,15.345273],[-90.599545,15.33955],[-90.581843,15.342734],[-90.562028,15.338615],[-90.540726,15.340859],[-90.527727,15.33976],[-90.500788,15.33282],[-90.485698,15.322944],[-90.481183,15.307926],[-90.481924,15.296641],[-90.490636,15.288599],[-90.491036,15.280228],[-90.473813,15.288521],[-90.455323,15.286252],[-90.436296,15.289244],[-90.427542,15.284108],[-90.410777,15.285463],[-90.405175,15.274255],[-90.369902,15.258447],[-90.356061,15.24532],[-90.33359,15.230157],[-90.324978,15.248518],[-90.310043,15.252241],[-90.304088,15.262783],[-90.26732,15.262088],[-90.254657,15.267081],[-90.238186,15.268611],[-90.221172,15.265126],[-90.188575,15.262985],[-90.157042,15.262981],[-90.117504,15.264631],[-90.07702,15.261166],[-90.054747,15.261889],[-90.021273,15.270439],[-90.000055,15.268882],[-89.974101,15.272467],[-89.94914,15.273102],[-89.934574,15.277955],[-89.920394,15.29309],[-89.917408,15.301202],[-89.902895,15.301113],[-89.89297,15.294359],[-89.895953,15.276469],[-89.885982,15.274041],[-89.863491,15.274207],[-89.859365,15.265002],[-89.862627,15.250197],[-89.861807,15.22784],[-89.8668,15.215744],[-89.867754,15.193324],[-89.86363,15.189939],[-89.861974,15.164607],[-89.851662,15.160301],[-89.824884,15.170725],[-89.808787,15.162348],[-89.803755,15.168423],[-89.78578,15.168227],[-89.775101,15.14892],[-89.769827,15.145225],[-89.755289,15.145704],[-89.747697,15.1422],[-89.729769,15.149403],[-89.720983,15.147214],[-89.710735,15.137493],[-89.694221,15.136235],[-89.685963,15.122873],[-89.674951,15.117212],[-89.66868,15.121202],[-89.672785,15.148285],[-89.657588,15.159574],[-89.653054,15.16626],[-89.626796,15.160601],[-89.609968,15.190481],[-89.576005,15.240939],[-89.56727,15.265341],[-89.567999,15.291924],[-89.563171,15.299145],[-89.56665,15.308427],[-89.553578,15.311557],[-89.53955,15.309431],[-89.535235,15.318791],[-89.54717,15.336019],[-89.544413,15.3461],[-89.517697,15.357314],[-89.5133,15.367008],[-89.52454,15.379428],[-89.514086,15.414787],[-89.532905,15.423474],[-89.530068,15.435372],[-89.516869,15.45014],[-89.529606,15.464683],[-89.545385,15.454052],[-89.555339,15.465432],[-89.570908,15.472799],[-89.58617,15.474484],[-89.588906,15.481938],[-89.566888,15.498],[-89.572729,15.509013],[-89.581556,15.5145],[-89.582126,15.523996],[-89.542176,15.613945],[-89.533298,15.635481],[-89.50433,15.690845],[-89.486181,15.723505],[-89.437734,15.816143],[-89.428677,15.819695],[-89.411799,15.855979],[-89.427386,15.859168],[-89.439398,15.85023],[-89.456908,15.847589],[-89.467577,15.861501],[-89.476626,15.860943],[-89.499897,15.845501],[-89.500533,15.940029],[-89.500424,16.001088],[-89.502139,16.04171],[-89.520693,16.044466],[-89.525007,16.051575],[-89.549516,16.040303],[-89.548501,16.032468],[-89.567666,16.029303],[-89.584538,16.010552],[-89.596195,16.020243],[-89.616388,16.010381],[-89.619878,16.016937],[-89.633053,16.017064],[-89.638741,16.012921],[-89.636486,16.000792],[-89.64899,15.98583],[-89.652253,15.973197],[-89.661388,15.97953],[-89.678683,15.97159],[-89.685177,15.980542],[-89.699019,15.976048],[-89.702523,15.96126],[-89.721565,15.966569],[-89.740271,15.959088],[-89.748017,15.950866],[-89.748854,15.941013],[-89.759663,15.921574],[-89.781559,15.922756],[-89.792818,15.915641],[-89.794897,15.908061],[-89.821745,15.910214],[-89.838686,15.906489],[-89.847661,15.909634],[-89.855853,15.905388],[-89.872405,15.91935],[-89.867932,15.92406],[-89.883958,15.942091],[-89.890215,15.962494],[-89.908063,15.962199],[-89.91471,15.967529],[-89.932105,15.964664],[-89.948417,15.977803],[-89.962857,15.980928],[-89.967662,15.988295],[-89.961814,16.003088],[-89.977245,16.007423],[-89.998249,15.998532],[-90.010837,16.000966],[-90.015212,16.010672],[-90.025889,16.00739],[-90.034932,16.015773],[-90.04373,15.992353],[-90.049485,15.996357],[-90.049677,16.016974],[-90.06215,16.020321],[-90.051578,16.047262],[-90.071092,16.0651],[-90.078241,16.053619],[-90.098036,16.052149],[-90.107754,16.036017],[-90.101403,16.032849],[-90.127184,16.021741],[-90.157175,16.031813],[-90.181147,16.037998],[-90.215393,16.043751],[-90.444495,16.072842]]]]},"properties":{"country_code":"GTM","country_name":"Guatemala","admin_level":1,"admin_type":"departamento","admin_code":"16","name":"Alta Verapaz","source_id":"03_Limites_departamentales.1"}},{"type":"Feature","geometry":{"type":"MultiPolygon","coordinates":[[[[-90.491036,15.280228],[-90.513429,15.253451],[-90.51416,15.247784],[-90.527895,15.234398],[-90.526973,15.228125],[-90.534228,15.215089],[-90.546405,15.213628],[-90.555984,15.246561],[-90.614526,15.247926],[-90.630389,15.249295],[-90.634175,15.310145],[-90.674422,15.349182],[-90.677701,15.349495],[-90.716957,15.284435],[-90.744667,15.301171],[-90.753149,15.277847],[-90.733083,15.265251],[-90.7552,15.222215],[-90.77543,15.221924],[-90.782579,15.2243],[-90.792327,15.23959],[-90.813701,15.236026],[-90.813479,15.223543],[-90.806752,15.155221],[-90.755466,15.074154],[-90.697973,15.032652],[-90.658141,15.002787],[-90.655493,14.986847],[-90.659908,14.964771],[-90.642727,14.947308],[-90.636138,14.926117],[-90.61561,14.913763],[-90.622033,14.884689],[-90.619173,14.876137],[-90.606893,14.879217],[-90.591114,14.870552],[-90.580881,14.869248],[-90.566556,14.875096],[-90.548492,14.876837],[-90.534495,14.885587],[-90.510132,14.88773],[-90.493706,14.894374],[-90.488738,14.887222],[-90.470058,14.878782],[-90.466701,14.881799],[-90.441888,14.882028],[-90.436166,14.8853],[-90.436077,14.899527],[-90.432475,14.908915],[-90.424443,14.913786],[-90.409088,14.910179],[-90.39473,14.873718],[-90.361025,14.87085],[-90.337788,14.874972],[-90.316812,14.875083],[-90.308094,14.877619],[-90.303547,14.88826],[-90.318521,14.897274],[-90.317474,14.912433],[-90.218943,14.981753],[-90.197602,15.001293],[-90.13465,15.046128],[-90.021442,15.12745],[-89.963955,15.151905],[-89.957221,15.145282],[-89.939597,15.139304],[-89.89967,15.137585],[-89.898047,15.146851],[-89.871486,15.144533],[-89.863454,15.159642],[-89.851662,15.160301],[-89.861974,15.164607],[-89.86363,15.189939],[-89.867754,15.193324],[-89.8668,15.215744],[-89.861807,15.22784],[-89.862627,15.250197],[-89.859365,15.265002],[-89.863491,15.274207],[-89.885982,15.274041],[-89.895953,15.276469],[-89.89297,15.294359],[-89.902895,15.301113],[-89.917408,15.301202],[-89.920394,15.29309],[-89.934574,15.277955],[-89.94914,15.273102],[-89.974101,15.272467],[-90.000055,15.268882],[-90.021273,15.270439],[-90.054747,15.261889],[-90.07702,15.261166],[-90.117504,15.264631],[-90.157042,15.262981],[-90.188575,15.262985],[-90.221172,15.265126],[-90.238186,15.268611],[-90.254657,15.267081],[-90.26732,15.262088],[-90.304088,15.262783],[-90.310043,15.252241],[-90.324978,15.248518],[-90.33359,15.230157],[-90.356061,15.24532],[-90.369902,15.258447],[-90.405175,15.274255],[-90.410777,15.285463],[-90.427542,15.284108],[-90.436296,15.289244],[-90.455323,15.286252],[-90.473813,15.288521],[-90.491036,15.280228]]]]},"properties":{"country_code":"GTM","country_name":"Guatemala","admin_level":1,"admin_type":"departamento","admin_code":"15","name":"Baja Verapaz","source_id":"03_Limites_departamentales.2"}},{"type":"Feature","geometry":{"type":"MultiPolygon","coordinates":[[[[-90.622033,14.884689],[-90.646475,14.889648],[-90.649932,14.884464],[-90.662794,14.888436],[-90.690516,14.908339],[-90.708841,14.907443],[-90.714509,14.913719],[-90.74194,14.91464],[-90.75314,14.923528],[-90.771223,14.926861],[-90.780876,14.919174],[-90.796343,14.922017],[-90.811289,14.921605],[-90.824467,14.92505],[-90.84806,14.925966],[-90.855032,14.930691],[-90.874526,14.934642],[-90.887454,14.933905],[-90.904641,14.928656],[-90.91141,14.923136],[-90.932384,14.919854],[-90.945792,14.924688],[-90.951386,14.921277],[-90.962815,14.924786],[-90.975088,14.934786],[-91.014834,14.930217],[-91.028,14.908599],[-91.024956,14.879568],[-91.042719,14.85755],[-91.044851,14.842703],[-91.035998,14.829949],[-91.023485,14.83173],[-91.021076,14.822399],[-91.049757,14.808706],[-91.072314,14.804972],[-91.084382,14.768499],[-91.086045,14.753133],[-91.075599,14.742981],[-91.085007,14.724662],[-91.076331,14.711343],[-91.078299,14.683685],[-91.110635,14.626556],[-91.116458,14.588543],[-91.116084,14.540986],[-91.119044,14.525101],[-91.124877,14.520806],[-91.119027,14.49537],[-91.128427,14.458242],[-91.09553,14.452957],[-91.093431,14.447455],[-91.097081,14.423849],[-91.101855,14.415479],[-91.102604,14.403276],[-91.082856,14.408354],[-91.060045,14.426777],[-91.046597,14.430957],[-91.036105,14.429595],[-91.029185,14.411183],[-91.014198,14.426112],[-91.003512,14.42979],[-91.002857,14.4192],[-90.98929,14.418722],[-90.982481,14.407646],[-90.982272,14.372262],[-90.974047,14.376134],[-90.968536,14.392645],[-90.953888,14.404389],[-90.948654,14.414532],[-90.937566,14.424998],[-90.921879,14.447515],[-90.908339,14.458267],[-90.880807,14.469781],[-90.87174,14.53159],[-90.860698,14.538244],[-90.851625,14.563273],[-90.826208,14.558654],[-90.806605,14.577625],[-90.795715,14.595978],[-90.791243,14.610061],[-90.792508,14.623646],[-90.76197,14.66057],[-90.773162,14.689025],[-90.771211,14.704027],[-90.761915,14.710403],[-90.758953,14.724093],[-90.761741,14.733019],[-90.750907,14.746406],[-90.721439,14.770665],[-90.707568,14.777625],[-90.70461,14.787343],[-90.694034,14.790133],[-90.68693,14.803721],[-90.694572,14.811805],[-90.692254,14.835715],[-90.682505,14.838143],[-90.676414,14.845503],[-90.663323,14.845413],[-90.662287,14.858532],[-90.635666,14.865419],[-90.619173,14.876137],[-90.622033,14.884689]]]]},"properties":{"country_code":"GTM","country_name":"Guatemala","admin_level":1,"admin_type":"departamento","admin_code":"04","name":"Chimaltenango","source_id":"03_Limites_departamentales.3"}},{"type":"Feature","geometry":{"type":"MultiPolygon","coordinates":[[[[-89.179379,14.921373],[-89.191485,14.938678],[-89.200471,14.94672],[-89.22044,14.948919],[-89.229048,14.940645],[-89.253069,14.905666],[-89.259433,14.899454],[-89.281181,14.89347],[-89.314988,14.910066],[-89.324688,14.910662],[-89.361227,14.898012],[-89.37827,14.89348],[-89.427809,14.905124],[-89.445911,14.899134],[-89.466391,14.899253],[-89.488613,14.888678],[-89.501951,14.860656],[-89.510698,14.861238],[-89.568179,14.855989],[-89.590669,14.855015],[-89.627677,14.866493],[-89.666423,14.877162],[-89.696216,14.853914],[-89.706256,14.843641],[-89.712527,14.819258],[-89.705644,14.796246],[-89.703461,14.780491],[-89.711494,14.759432],[-89.720377,14.749962],[-89.687173,14.747314],[-89.672734,14.750421],[-89.6754,14.712198],[-89.66893,14.702606],[-89.671948,14.691062],[-89.667253,14.686464],[-89.657166,14.690327],[-89.645154,14.682983],[-89.650399,14.662038],[-89.661768,14.648142],[-89.664919,14.623295],[-89.674723,14.611434],[-89.672377,14.597836],[-89.691739,14.566201],[-89.694269,14.554359],[-89.690665,14.541321],[-89.68158,14.529871],[-89.645316,14.557279],[-89.61952,14.544705],[-89.62355,14.512458],[-89.612721,14.502608],[-89.592036,14.503696],[-89.593153,14.482075],[-89.582463,14.474089],[-89.560836,14.478972],[-89.549055,14.48719],[-89.555616,14.50776],[-89.565127,14.511803],[-89.553293,14.524872],[-89.53908,14.512118],[-89.526217,14.509885],[-89.518942,14.501911],[-89.519945,14.492721],[-89.513249,14.483683],[-89.499934,14.475351],[-89.501323,14.44592],[-89.50546,14.437647],[-89.52124,14.426488],[-89.512702,14.415962],[-89.510826,14.406283],[-89.497164,14.407932],[-89.486392,14.4182],[-89.469818,14.427347],[-89.462878,14.422367],[-89.445087,14.41806],[-89.434051,14.410764],[-89.419189,14.419555],[-89.406574,14.430807],[-89.400663,14.446398],[-89.392885,14.449596],[-89.372632,14.428922],[-89.354922,14.4214],[-89.348699,14.44089],[-89.354443,14.467729],[-89.310689,14.487355],[-89.302104,14.493642],[-89.304166,14.505772],[-89.287466,14.515856],[-89.284776,14.525958],[-89.274697,14.541743],[-89.261969,14.548044],[-89.253367,14.567436],[-89.236588,14.584386],[-89.203385,14.581549],[-89.19973,14.577083],[-89.177934,14.570842],[-89.160984,14.57162],[-89.14868,14.600069],[-89.149971,14.618254],[-89.147396,14.630189],[-89.155315,14.652397],[-89.156495,14.670733],[-89.149191,14.674224],[-89.132854,14.7071],[-89.132364,14.712162],[-89.166545,14.730597],[-89.166304,14.745609],[-89.16915,14.773984],[-89.198134,14.801115],[-89.224652,14.833841],[-89.228294,14.873143],[-89.2222,14.88739],[-89.213989,14.889785],[-89.204819,14.89966],[-89.19072,14.900039],[-89.184486,14.904252],[-89.179379,14.921373]]]]},"properties":{"country_code":"GTM","country_name":"Guatemala","admin_level":1,"admin_type":"departamento","admin_code":"20","name":"Chiquimula","source_id":"03_Limites_departamentales.4"}},{"type":"Feature","geometry":{"type":"MultiPolygon","coordinates":[[[[-90.39473,14.873718],[-90.405135,14.8656],[-90.402271,14.843899],[-90.386114,14.838672],[-90.351083,14.839158],[-90.33876,14.83467],[-90.326911,14.820476],[-90.327161,14.812119],[-90.338029,14.808749],[-90.344041,14.793122],[-90.340658,14.778341],[-90.347881,14.768324],[-90.338924,14.757369],[-90.332458,14.74138],[-90.331883,14.731757],[-90.325558,14.721601],[-90.315387,14.714028],[-90.299331,14.709469],[-90.296663,14.703169],[-90.249309,14.691305],[-90.211852,14.669488],[-90.193454,14.667613],[-90.180962,14.677019],[-90.169525,14.695245],[-90.127683,14.702883],[-90.121509,14.708997],[-90.099356,14.712305],[-90.088565,14.702925],[-90.064079,14.701207],[-90.060238,14.704795],[-90.05958,14.721622],[-90.04374,14.734312],[-90.038837,14.746841],[-90.040816,14.754004],[-90.034676,14.773488],[-90.024681,14.774327],[-90.018647,14.787534],[-90.009773,14.794673],[-89.999286,14.810339],[-89.97879,14.795899],[-89.961938,14.793572],[-89.953593,14.798672],[-89.952109,14.809801],[-89.934531,14.819885],[-89.940632,14.832975],[-89.931325,14.846111],[-89.884565,14.87233],[-89.86208,14.870844],[-89.853377,14.875611],[-89.841469,14.897313],[-89.81696,14.906272],[-89.815472,14.926317],[-89.818485,14.950778],[-89.830258,14.951518],[-89.836544,14.944907],[-89.851333,14.959616],[-89.846874,14.981896],[-89.855793,14.998393],[-89.871451,15.016631],[-89.867436,15.022704],[-89.837928,15.014438],[-89.811819,15.014457],[-89.793286,15.012448],[-89.78934,15.019053],[-89.815277,15.050186],[-89.838554,15.069973],[-89.89967,15.137585],[-89.939597,15.139304],[-89.957221,15.145282],[-89.963955,15.151905],[-90.021442,15.12745],[-90.13465,15.046128],[-90.197602,15.001293],[-90.218943,14.981753],[-90.317474,14.912433],[-90.318521,14.897274],[-90.303547,14.88826],[-90.308094,14.877619],[-90.316812,14.875083],[-90.337788,14.874972],[-90.361025,14.87085],[-90.39473,14.873718]]]]},"properties":{"country_code":"GTM","country_name":"Guatemala","admin_level":1,"admin_type":"departamento","admin_code":"02","name":"El Progreso","source_id":"03_Limites_departamentales.5"}},{"type":"Feature","geometry":{"type":"MultiPolygon","coordinates":[[[[-91.101855,14.415479],[-91.115988,14.404832],[-91.1289,14.381934],[-91.135675,14.380481],[-91.134171,14.36395],[-91.12543,14.356475],[-91.128876,14.34598],[-91.126499,14.33447],[-91.130077,14.322337],[-91.139016,14.321591],[-91.146947,14.299892],[-91.144753,14.288832],[-91.154697,14.278282],[-91.151988,14.269762],[-91.154714,14.259119],[-91.150801,14.250453],[-91.153608,14.234404],[-91.164692,14.22508],[-91.168746,14.213394],[-91.180385,14.20847],[-91.178916,14.200465],[-91.216992,14.206656],[-91.217121,14.21324],[-91.199613,14.292733],[-91.267233,14.304701],[-91.272291,14.310106],[-91.266076,14.336722],[-91.281104,14.339235],[-91.283887,14.330746],[-91.296965,14.333509],[-91.313047,14.32036],[-91.327476,14.333405],[-91.356543,14.31808],[-91.36367,14.333688],[-91.369602,14.330993],[-91.363525,14.315415],[-91.368578,14.309741],[-91.380956,14.308645],[-91.396264,14.296276],[-91.420607,14.283439],[-91.430072,14.286263],[-91.434966,14.319494],[-91.444694,14.318802],[-91.449996,14.310903],[-91.460144,14.308372],[-91.464092,14.298773],[-91.454346,14.290939],[-91.453767,14.280222],[-91.461375,14.267838],[-91.453331,14.26565],[-91.44928,14.257061],[-91.447916,14.239705],[-91.449731,14.22407],[-91.445418,14.216101],[-91.447583,14.202199],[-91.460968,14.175306],[-91.483293,14.154071],[-91.487477,14.131566],[-91.500434,14.122902],[-91.508081,14.100397],[-91.52348,14.087245],[-91.53247,14.082926],[-91.529427,14.072255],[-91.53642,14.063715],[-91.530259,14.054422],[-91.538576,14.043494],[-91.526291,14.040428],[-91.467936,14.018135],[-91.416252,13.995142],[-91.320979,13.955039],[-91.272354,13.941337],[-91.211529,13.928957],[-91.169436,13.923067],[-91.090235,13.915025],[-91.032699,13.91182],[-90.971551,13.912753],[-90.912466,13.90975],[-90.856142,13.915211],[-90.803888,13.917593],[-90.787648,13.916352],[-90.774129,13.920676],[-90.748886,13.923031],[-90.697679,13.925224],[-90.659219,13.924085],[-90.67523,14.020947],[-90.659543,14.027643],[-90.662587,14.049868],[-90.636771,14.049836],[-90.635425,14.064591],[-90.647955,14.084387],[-90.650419,14.095624],[-90.638278,14.108974],[-90.643833,14.123681],[-90.643842,14.135003],[-90.629842,14.146985],[-90.606792,14.17017],[-90.599786,14.188946],[-90.602971,14.207085],[-90.596117,14.217763],[-90.594211,14.230467],[-90.603803,14.232285],[-90.5962,14.256966],[-90.589349,14.254477],[-90.588897,14.241662],[-90.579431,14.255379],[-90.583199,14.270544],[-90.589281,14.275871],[-90.584309,14.285764],[-90.589225,14.29355],[-90.602906,14.298471],[-90.605349,14.314229],[-90.612567,14.322984],[-90.613967,14.336052],[-90.603388,14.349546],[-90.597894,14.363849],[-90.599699,14.387902],[-90.599186,14.416891],[-90.605354,14.423322],[-90.617193,14.422871],[-90.643154,14.427248],[-90.644081,14.441058],[-90.649274,14.453257],[-90.659808,14.462713],[-90.674749,14.450544],[-90.66806,14.434937],[-90.676865,14.427855],[-90.693735,14.434062],[-90.707519,14.433683],[-90.72365,14.449874],[-90.738902,14.45984],[-90.746743,14.46095],[-90.768216,14.450358],[-90.780626,14.438829],[-90.79166,14.418524],[-90.816367,14.386847],[-90.81702,14.401423],[-90.832664,14.420654],[-90.839569,14.433879],[-90.856719,14.45208],[-90.871002,14.459999],[-90.880807,14.469781],[-90.908339,14.458267],[-90.921879,14.447515],[-90.937566,14.424998],[-90.948654,14.414532],[-90.953888,14.404389],[-90.968536,14.392645],[-90.974047,14.376134],[-90.982272,14.372262],[-90.982481,14.407646],[-90.98929,14.418722],[-91.002857,14.4192],[-91.003512,14.42979],[-91.014198,14.426112],[-91.029185,14.411183],[-91.036105,14.429595],[-91.046597,14.430957],[-91.060045,14.426777],[-91.082856,14.408354],[-91.102604,14.403276],[-91.101855,14.415479]]]]},"properties":{"country_code":"GTM","country_name":"Guatemala","admin_level":1,"admin_type":"departamento","admin_code":"05","name":"Escuintla","source_id":"03_Limites_departamentales.6"}},{"type":"Feature","geometry":{"type":"MultiPolygon","coordinates":[[[[-90.619173,14.876137],[-90.635666,14.865419],[-90.662287,14.858532],[-90.663323,14.845413],[-90.676414,14.845503],[-90.682505,14.838143],[-90.692254,14.835715],[-90.694572,14.811805],[-90.68693,14.803721],[-90.694034,14.790133],[-90.70461,14.787343],[-90.707568,14.777625],[-90.721439,14.770665],[-90.750907,14.746406],[-90.761741,14.733019],[-90.758953,14.724093],[-90.743501,14.709315],[-90.734562,14.694465],[-90.711092,14.690712],[-90.699663,14.694141],[-90.693124,14.703126],[-90.675832,14.700011],[-90.673143,14.667478],[-90.647661,14.658494],[-90.638505,14.652285],[-90.64325,14.625494],[-90.63269,14.617311],[-90.638257,14.611245],[-90.637129,14.600951],[-90.629191,14.593567],[-90.613641,14.589089],[-90.61423,14.580008],[-90.631353,14.579429],[-90.630176,14.56892],[-90.653097,14.582888],[-90.66702,14.582272],[-90.66463,14.569803],[-90.653321,14.563425],[-90.657845,14.552577],[-90.657586,14.541451],[-90.666198,14.523424],[-90.664749,14.511775],[-90.671973,14.49708],[-90.673527,14.479863],[-90.659808,14.462713],[-90.649274,14.453257],[-90.644081,14.441058],[-90.643154,14.427248],[-90.617193,14.422871],[-90.605354,14.423322],[-90.599186,14.416891],[-90.599699,14.387902],[-90.597894,14.363849],[-90.603388,14.349546],[-90.613967,14.336052],[-90.612567,14.322984],[-90.605349,14.314229],[-90.602906,14.298471],[-90.589225,14.29355],[-90.584309,14.285764],[-90.589281,14.275871],[-90.583199,14.270544],[-90.579431,14.255379],[-90.588897,14.241662],[-90.579856,14.242879],[-90.568832,14.256103],[-90.528527,14.267991],[-90.527119,14.277235],[-90.510961,14.286702],[-90.507133,14.297149],[-90.514248,14.305508],[-90.495369,14.325931],[-90.495309,14.339751],[-90.486693,14.360335],[-90.450405,14.364508],[-90.449029,14.373387],[-90.454862,14.386139],[-90.454916,14.399372],[-90.432373,14.403439],[-90.430356,14.417055],[-90.42361,14.416535],[-90.416059,14.433398],[-90.416031,14.443998],[-90.410398,14.455796],[-90.403752,14.487094],[-90.394148,14.477524],[-90.385554,14.474548],[-90.369837,14.483939],[-90.353533,14.478022],[-90.346144,14.478813],[-90.332321,14.492319],[-90.321961,14.486403],[-90.30975,14.499808],[-90.299921,14.503458],[-90.291409,14.506483],[-90.28443,14.523329],[-90.277929,14.52904],[-90.26435,14.527495],[-90.273116,14.557244],[-90.275778,14.575265],[-90.267223,14.589212],[-90.255335,14.592038],[-90.247643,14.588701],[-90.23152,14.617098],[-90.228564,14.640345],[-90.2311,14.650565],[-90.227293,14.661247],[-90.211852,14.669488],[-90.249309,14.691305],[-90.296663,14.703169],[-90.299331,14.709469],[-90.315387,14.714028],[-90.325558,14.721601],[-90.331883,14.731757],[-90.332458,14.74138],[-90.338924,14.757369],[-90.347881,14.768324],[-90.340658,14.778341],[-90.344041,14.793122],[-90.338029,14.808749],[-90.327161,14.812119],[-90.326911,14.820476],[-90.33876,14.83467],[-90.351083,14.839158],[-90.386114,14.838672],[-90.402271,14.843899],[-90.405135,14.8656],[-90.39473,14.873718],[-90.409088,14.910179],[-90.424443,14.913786],[-90.432475,14.908915],[-90.436077,14.899527],[-90.436166,14.8853],[-90.441888,14.882028],[-90.466701,14.881799],[-90.470058,14.878782],[-90.488738,14.887222],[-90.493706,14.894374],[-90.510132,14.88773],[-90.534495,14.885587],[-90.548492,14.876837],[-90.566556,14.875096],[-90.580881,14.869248],[-90.591114,14.870552],[-90.606893,14.879217],[-90.619173,14.876137]],[[-90.604886,14.472634],[-90.611183,14.486782],[-90.58112,14.480318],[-90.568348,14.485752],[-90.569437,14.470416],[-90.562426,14.450706],[-90.54767,14.444255],[-90.538326,14.447548],[-90.534743,14.422607],[-90.551123,14.423942],[-90.557771,14.438337],[-90.576082,14.464261],[-90.582981,14.461903],[-90.594355,14.477117],[-90.604886,14.472634]]]]},"properties":{"country_code":"GTM","country_name":"Guatemala","admin_level":1,"admin_type":"departamento","admin_code":"01","name":"Guatemala","source_id":"03_Limites_departamentales.7"}},{"type":"Feature","geometry":{"type":"MultiPolygon","coordinates":[[[[-91.319244,15.253655],[-91.325448,15.258808],[-91.32615,15.268634],[-91.313592,15.272446],[-91.304671,15.266993],[-91.295253,15.270548],[-91.289,15.279835],[-91.272098,15.267945],[-91.249568,15.271935],[-91.229675,15.285592],[-91.210097,15.285195],[-91.207714,15.28023],[-91.188212,15.284478],[-91.182736,15.304474],[-91.182232,15.317597],[-91.174117,15.342284],[-91.157951,15.361573],[-91.171259,15.385522],[-91.240445,15.378384],[-91.305226,15.427708],[-91.319513,15.462446],[-91.319516,15.554557],[-91.273859,15.584402],[-91.283393,15.595904],[-91.281155,15.614763],[-91.26763,15.621403],[-91.253929,15.619759],[-91.233673,15.63288],[-91.230311,15.651142],[-91.216466,15.643795],[-91.216743,15.655859],[-91.204804,15.665334],[-91.201344,15.675966],[-91.193622,15.680382],[-91.184384,15.692375],[-91.167375,15.697327],[-91.168279,15.710898],[-91.158138,15.715446],[-91.157795,15.750354],[-91.139665,15.774748],[-91.152705,15.789078],[-91.167897,15.800685],[-91.15517,15.808233],[-91.147448,15.818612],[-91.152536,15.830161],[-91.143476,15.831199],[-91.092645,15.799896],[-91.069291,15.884212],[-91.059332,15.917935],[-91.051758,15.915802],[-91.047067,15.935818],[-91.067426,15.945091],[-91.062027,15.969377],[-91.094605,15.968641],[-91.106929,15.992034],[-91.129522,16.00084],[-91.124929,16.023623],[-91.118256,16.042141],[-91.10717,16.051768],[-91.111981,16.062278],[-91.107565,16.073356],[-91.3292,16.073278],[-91.500023,16.072951],[-91.731213,16.072835],[-91.867724,15.842584],[-92.001551,15.615304],[-92.080169,15.480265],[-92.117756,15.422824],[-92.107245,15.40628],[-92.099563,15.401511],[-92.079756,15.396623],[-92.078053,15.391655],[-92.077467,15.351604],[-92.077758,15.286342],[-92.076764,15.276713],[-92.008812,15.264032],[-91.956333,15.320041],[-91.937113,15.321119],[-91.924095,15.331714],[-91.881195,15.361267],[-91.822156,15.329513],[-91.796416,15.329807],[-91.772589,15.341002],[-91.759249,15.345153],[-91.743193,15.342245],[-91.729776,15.343194],[-91.710195,15.338869],[-91.682759,15.305184],[-91.664043,15.291775],[-91.653355,15.27491],[-91.622069,15.235463],[-91.587379,15.236473],[-91.568391,15.225242],[-91.519802,15.206686],[-91.511451,15.145186],[-91.494237,15.144527],[-91.468402,15.138046],[-91.387331,15.139981],[-91.381757,15.203451],[-91.359728,15.231705],[-91.350138,15.230907],[-91.345857,15.237021],[-91.327611,15.237746],[-91.319244,15.253655]]]]},"properties":{"country_code":"GTM","country_name":"Guatemala","admin_level":1,"admin_type":"departamento","admin_code":"13","name":"Huehuetenango","source_id":"03_Limites_departamentales.8"}},{"type":"Feature","geometry":{"type":"MultiPolygon","coordinates":[[[[-89.626796,15.160601],[-89.613064,15.159591],[-89.591439,15.169014],[-89.560626,15.179655],[-89.544674,15.171725],[-89.510631,15.180225],[-89.494152,15.188185],[-89.458431,15.198302],[-89.421229,15.21457],[-89.408417,15.225478],[-89.395937,15.243116],[-89.382861,15.265854],[-89.359456,15.277112],[-89.347525,15.273092],[-89.33757,15.276334],[-89.325575,15.270915],[-89.306661,15.275131],[-89.305776,15.28513],[-89.290293,15.292618],[-89.266651,15.29271],[-89.257941,15.296867],[-89.241571,15.2919],[-89.22991,15.294643],[-89.222373,15.289291],[-89.217789,15.273048],[-89.20906,15.27367],[-89.192405,15.28197],[-89.187374,15.269535],[-89.175613,15.266296],[-89.174615,15.207097],[-89.21045,15.188386],[-89.212591,15.176754],[-89.195536,15.171548],[-89.188505,15.143937],[-89.182184,15.13328],[-89.179085,15.11358],[-89.186956,15.107097],[-89.177949,15.094796],[-89.174979,15.084644],[-89.154267,15.067081],[-89.137067,15.074993],[-89.092662,15.091259],[-89.011213,15.122332],[-88.975447,15.135315],[-88.933147,15.169846],[-88.847658,15.240782],[-88.79689,15.270677],[-88.676267,15.342852],[-88.650111,15.367939],[-88.615407,15.404019],[-88.592869,15.420294],[-88.583506,15.418977],[-88.568547,15.428953],[-88.559062,15.44525],[-88.545971,15.450492],[-88.502772,15.492735],[-88.471961,15.512193],[-88.400456,15.571732],[-88.34622,15.615624],[-88.330047,15.638396],[-88.322737,15.6564],[-88.325499,15.66944],[-88.282887,15.673849],[-88.269865,15.689506],[-88.260654,15.681839],[-88.247659,15.68931],[-88.242396,15.708001],[-88.250392,15.720226],[-88.221575,15.722647],[-88.253147,15.731237],[-88.27079,15.742314],[-88.297142,15.770924],[-88.307249,15.779265],[-88.366289,15.814348],[-88.426186,15.844499],[-88.454821,15.861679],[-88.50394,15.896914],[-88.544528,15.936106],[-88.554875,15.944317],[-88.583531,15.958845],[-88.607661,15.965146],[-88.62251,15.962971],[-88.614256,15.936902],[-88.599301,15.932502],[-88.586844,15.920452],[-88.576958,15.918596],[-88.565371,15.911187],[-88.557053,15.896898],[-88.551057,15.89549],[-88.54939,15.882099],[-88.540889,15.875231],[-88.511188,15.869009],[-88.510304,15.855918],[-88.496229,15.854408],[-88.491217,15.848835],[-88.494434,15.83668],[-88.506748,15.834915],[-88.528555,15.838997],[-88.544182,15.847136],[-88.550645,15.841149],[-88.565294,15.851502],[-88.5641,15.82273],[-88.554665,15.810696],[-88.570322,15.778631],[-88.583778,15.761303],[-88.575406,15.756979],[-88.580942,15.747375],[-88.590276,15.74026],[-88.602026,15.738733],[-88.606071,15.732963],[-88.603815,15.718518],[-88.59581,15.711437],[-88.600889,15.699396],[-88.634301,15.691959],[-88.647209,15.699834],[-88.646065,15.714568],[-88.629678,15.734588],[-88.633186,15.743052],[-88.628059,15.752422],[-88.649313,15.759141],[-88.678999,15.779994],[-88.717248,15.803248],[-88.730868,15.815809],[-88.740899,15.809046],[-88.750205,15.812814],[-88.765752,15.801916],[-88.779208,15.800809],[-88.771507,15.789502],[-88.776366,15.773698],[-88.786136,15.781726],[-88.797465,15.77885],[-88.803453,15.770681],[-88.822955,15.77441],[-88.831324,15.763487],[-88.841425,15.758117],[-88.843161,15.744253],[-88.858547,15.726169],[-88.863962,15.715122],[-88.880728,15.70735],[-88.888832,15.685148],[-88.896796,15.682571],[-88.910849,15.69213],[-88.920753,15.695199],[-88.935707,15.694315],[-88.946456,15.68331],[-88.948858,15.672312],[-88.974681,15.670969],[-88.99202,15.664928],[-88.997472,15.650628],[-88.993944,15.640517],[-88.981158,15.623949],[-88.982794,15.616314],[-89.000274,15.600906],[-89.004936,15.588801],[-89.000225,15.572481],[-88.992381,15.570369],[-88.985605,15.550649],[-88.983159,15.509777],[-88.988426,15.503805],[-89.000078,15.500737],[-89.011818,15.487731],[-89.021243,15.484805],[-89.02205,15.475731],[-89.031299,15.46994],[-89.062654,15.440631],[-89.072198,15.439164],[-89.079325,15.426574],[-89.097663,15.415645],[-89.110547,15.417949],[-89.125367,15.406518],[-89.151395,15.403216],[-89.184489,15.407296],[-89.202178,15.407041],[-89.217627,15.41477],[-89.248586,15.414379],[-89.245956,15.406014],[-89.263441,15.397289],[-89.277392,15.370173],[-89.289915,15.369478],[-89.307662,15.355565],[-89.329131,15.367479],[-89.341652,15.390725],[-89.324713,15.402686],[-89.331917,15.421557],[-89.32243,15.425045],[-89.336614,15.442687],[-89.343434,15.456044],[-89.356243,15.449829],[-89.362003,15.461851],[-89.385708,15.46017],[-89.391639,15.473067],[-89.384348,15.49462],[-89.374842,15.506895],[-89.32784,15.523277],[-89.314112,15.530247],[-89.305694,15.527769],[-89.299401,15.517517],[-89.286181,15.516531],[-89.265743,15.52097],[-89.248246,15.538626],[-89.244362,15.548105],[-89.24643,15.557395],[-89.240862,15.564364],[-89.222815,15.571432],[-89.21223,15.567628],[-89.194426,15.570228],[-89.187313,15.578331],[-89.177896,15.578748],[-89.170427,15.571175],[-89.152105,15.563474],[-89.131756,15.568731],[-89.127557,15.578671],[-89.105562,15.580987],[-89.097637,15.576935],[-89.078382,15.587947],[-89.070579,15.588203],[-89.06499,15.600225],[-89.053094,15.606783],[-89.055806,15.612107],[-89.027244,15.622297],[-89.027864,15.627203],[-89.008811,15.627393],[-89.003217,15.639483],[-88.994946,15.670517],[-88.952631,15.683314],[-88.942537,15.695457],[-88.950683,15.708901],[-88.934862,15.716188],[-88.917912,15.730319],[-88.904572,15.732287],[-88.881292,15.748778],[-88.872556,15.747227],[-88.871354,15.758001],[-88.8639,15.767889],[-88.861073,15.780439],[-88.84917,15.786726],[-88.827048,15.787615],[-88.818234,15.775823],[-88.808831,15.772788],[-88.799399,15.781848],[-88.791267,15.783584],[-88.776732,15.78025],[-88.773597,15.790598],[-88.780183,15.802366],[-88.769109,15.802897],[-88.747583,15.82339],[-88.749241,15.829257],[-88.794332,15.858535],[-88.815281,15.863521],[-88.829837,15.871913],[-88.837896,15.862862],[-88.852901,15.86514],[-88.861064,15.859911],[-88.885674,15.863308],[-88.90269,15.888322],[-88.912706,15.898331],[-88.930561,15.889301],[-88.958732,15.887687],[-88.966227,15.892727],[-88.982803,15.894841],[-88.991813,15.902447],[-89.00408,15.896794],[-89.019933,15.893613],[-89.021326,15.909865],[-89.054968,15.916189],[-89.063823,15.905053],[-89.07266,15.908454],[-89.077105,15.898394],[-89.087327,15.909051],[-89.103409,15.911699],[-89.125706,15.899222],[-89.131262,15.906396],[-89.147831,15.89631],[-89.161485,15.898486],[-89.175796,15.913022],[-89.197252,15.901527],[-89.224175,15.891559],[-89.230188,15.896365],[-89.234706,15.908884],[-89.248475,15.915847],[-89.265417,15.92021],[-89.273751,15.914137],[-89.291267,15.91323],[-89.303629,15.917003],[-89.327001,15.913795],[-89.337467,15.919775],[-89.35509,15.920446],[-89.364563,15.91782],[-89.377048,15.906619],[-89.379901,15.888092],[-89.389689,15.874515],[-89.411799,15.855979],[-89.428677,15.819695],[-89.437734,15.816143],[-89.486181,15.723505],[-89.50433,15.690845],[-89.533298,15.635481],[-89.542176,15.613945],[-89.582126,15.523996],[-89.581556,15.5145],[-89.572729,15.509013],[-89.566888,15.498],[-89.588906,15.481938],[-89.58617,15.474484],[-89.570908,15.472799],[-89.555339,15.465432],[-89.545385,15.454052],[-89.529606,15.464683],[-89.516869,15.45014],[-89.530068,15.435372],[-89.532905,15.423474],[-89.514086,15.414787],[-89.52454,15.379428],[-89.5133,15.367008],[-89.517697,15.357314],[-89.544413,15.3461],[-89.54717,15.336019],[-89.535235,15.318791],[-89.53955,15.309431],[-89.553578,15.311557],[-89.56665,15.308427],[-89.563171,15.299145],[-89.567999,15.291924],[-89.56727,15.265341],[-89.576005,15.240939],[-89.609968,15.190481],[-89.626796,15.160601]]]]},"properties":{"country_code":"GTM","country_name":"Guatemala","admin_level":1,"admin_type":"departamento","admin_code":"18","name":"Izabal","source_id":"03_Limites_departamentales.9"}},{"type":"Feature","geometry":{"type":"MultiPolygon","coordinates":[[[[-89.720377,14.749962],[-89.729812,14.742715],[-89.749172,14.740891],[-89.76858,14.749482],[-89.775731,14.764408],[-89.784763,14.768405],[-89.812259,14.790495],[-89.812007,14.79643],[-89.82613,14.815154],[-89.823899,14.836221],[-89.820128,14.842466],[-89.844363,14.862455],[-89.861514,14.863253],[-89.86208,14.870844],[-89.884565,14.87233],[-89.931325,14.846111],[-89.940632,14.832975],[-89.934531,14.819885],[-89.952109,14.809801],[-89.953593,14.798672],[-89.961938,14.793572],[-89.97879,14.795899],[-89.999286,14.810339],[-90.009773,14.794673],[-90.018647,14.787534],[-90.024681,14.774327],[-90.034676,14.773488],[-90.040816,14.754004],[-90.038837,14.746841],[-90.04374,14.734312],[-90.05958,14.721622],[-90.060238,14.704795],[-90.064079,14.701207],[-90.088565,14.702925],[-90.099356,14.712305],[-90.121509,14.708997],[-90.127683,14.702883],[-90.169525,14.695245],[-90.180962,14.677019],[-90.193454,14.667613],[-90.211852,14.669488],[-90.227293,14.661247],[-90.2311,14.650565],[-90.228564,14.640345],[-90.23152,14.617098],[-90.247643,14.588701],[-90.255335,14.592038],[-90.267223,14.589212],[-90.275778,14.575265],[-90.273116,14.557244],[-90.26435,14.527495],[-90.277929,14.52904],[-90.28443,14.523329],[-90.291409,14.506483],[-90.299921,14.503458],[-90.296568,14.499379],[-90.275697,14.502155],[-90.268004,14.49378],[-90.266647,14.479915],[-90.254487,14.475451],[-90.242366,14.466208],[-90.236247,14.483547],[-90.202066,14.483728],[-90.18619,14.489808],[-90.179971,14.484421],[-90.162773,14.488593],[-90.143341,14.489335],[-90.126077,14.485903],[-90.121515,14.46371],[-90.05791,14.419361],[-90.031898,14.422363],[-90.032009,14.429488],[-90.017766,14.437095],[-89.991273,14.439987],[-89.981329,14.45387],[-89.940203,14.461572],[-89.933929,14.460768],[-89.894314,14.432313],[-89.889496,14.457834],[-89.879012,14.466127],[-89.863571,14.466196],[-89.853535,14.486264],[-89.839518,14.488777],[-89.835273,14.493346],[-89.844598,14.503348],[-89.844173,14.51122],[-89.832632,14.511932],[-89.816042,14.503922],[-89.805704,14.489774],[-89.792977,14.488953],[-89.789036,14.480166],[-89.77585,14.483434],[-89.729245,14.483818],[-89.711949,14.480727],[-89.69111,14.496502],[-89.688516,14.515414],[-89.68158,14.529871],[-89.690665,14.541321],[-89.694269,14.554359],[-89.691739,14.566201],[-89.672377,14.597836],[-89.674723,14.611434],[-89.664919,14.623295],[-89.661768,14.648142],[-89.650399,14.662038],[-89.645154,14.682983],[-89.657166,14.690327],[-89.667253,14.686464],[-89.671948,14.691062],[-89.66893,14.702606],[-89.6754,14.712198],[-89.672734,14.750421],[-89.687173,14.747314],[-89.720377,14.749962]]]]},"properties":{"country_code":"GTM","country_name":"Guatemala","admin_level":1,"admin_type":"departamento","admin_code":"21","name":"Jalapa","source_id":"03_Limites_departamentales.10"}},{"type":"Feature","geometry":{"type":"MultiPolygon","coordinates":[[[[-89.68158,14.529871],[-89.688516,14.515414],[-89.69111,14.496502],[-89.711949,14.480727],[-89.729245,14.483818],[-89.77585,14.483434],[-89.789036,14.480166],[-89.792977,14.488953],[-89.805704,14.489774],[-89.816042,14.503922],[-89.832632,14.511932],[-89.844173,14.51122],[-89.844598,14.503348],[-89.835273,14.493346],[-89.839518,14.488777],[-89.853535,14.486264],[-89.863571,14.466196],[-89.879012,14.466127],[-89.889496,14.457834],[-89.894314,14.432313],[-89.933929,14.460768],[-89.940203,14.461572],[-89.981329,14.45387],[-89.991273,14.439987],[-90.017766,14.437095],[-90.032009,14.429488],[-90.031898,14.422363],[-90.05791,14.419361],[-90.067024,14.408821],[-90.076931,14.385986],[-90.078413,14.363629],[-90.071391,14.360166],[-90.065994,14.33634],[-90.079947,14.338768],[-90.10175,14.347344],[-90.115153,14.349549],[-90.135078,14.348887],[-90.133811,14.330851],[-90.18575,14.333315],[-90.188073,14.300971],[-90.196007,14.291343],[-90.208355,14.298144],[-90.212923,14.287283],[-90.207223,14.266485],[-90.211472,14.25576],[-90.20607,14.250016],[-90.193664,14.260618],[-90.165189,14.237248],[-90.127302,14.219561],[-90.090883,14.201056],[-90.078205,14.185526],[-90.084412,14.167999],[-90.078895,14.159884],[-90.090311,14.154896],[-90.076254,14.126547],[-90.063579,14.112143],[-90.08234,14.065646],[-90.100171,14.06784],[-90.142945,14.076684],[-90.145142,14.063983],[-90.181715,14.028957],[-90.180484,14.026992],[-90.129511,14.004601],[-90.138315,13.993804],[-90.164813,13.971164],[-90.165652,13.989615],[-90.195471,13.990687],[-90.215562,14.008598],[-90.245065,14.00911],[-90.249633,14.0064],[-90.281959,14.000819],[-90.295487,13.986166],[-90.295095,13.97146],[-90.284361,13.946331],[-90.274962,13.935828],[-90.263224,13.928649],[-90.24977,13.927919],[-90.233259,13.920948],[-90.228705,13.904665],[-90.22064,13.898114],[-90.221142,13.885317],[-90.210832,13.882738],[-90.202746,13.869446],[-90.210977,13.865027],[-90.22332,13.841497],[-90.204926,13.838454],[-90.210967,13.827747],[-90.241176,13.830254],[-90.236199,13.806853],[-90.241704,13.799108],[-90.23841,13.78753],[-90.202185,13.772736],[-90.183964,13.774837],[-90.185549,13.766348],[-90.128812,13.740529],[-90.102325,13.740252],[-90.097662,13.764897],[-90.107913,13.780429],[-90.118186,13.78418],[-90.117569,13.797334],[-90.107644,13.807361],[-90.11323,13.826795],[-90.112045,13.833014],[-90.10087,13.840979],[-90.09495,13.85595],[-90.0874,13.859878],[-90.080474,13.874959],[-90.06709,13.8792],[-90.067049,13.885781],[-90.035919,13.897685],[-90.037159,13.91535],[-90.026302,13.93354],[-90.008709,13.943277],[-89.999547,13.954805],[-89.992253,13.953967],[-89.960429,13.969612],[-89.95806,13.977242],[-89.936688,13.986735],[-89.926556,14.005442],[-89.907109,14.013346],[-89.904569,14.032429],[-89.891434,14.040965],[-89.865614,14.039437],[-89.859047,14.043057],[-89.856886,14.055654],[-89.845895,14.054953],[-89.818107,14.060972],[-89.789953,14.04474],[-89.7872,14.038051],[-89.773814,14.031388],[-89.741518,14.033767],[-89.745723,14.062168],[-89.732948,14.092839],[-89.725983,14.118005],[-89.713531,14.137215],[-89.672051,14.172782],[-89.665554,14.184606],[-89.627939,14.203608],[-89.58552,14.20119],[-89.558761,14.208605],[-89.550624,14.219797],[-89.53739,14.216281],[-89.525205,14.218583],[-89.518838,14.231486],[-89.522114,14.240471],[-89.550355,14.275059],[-89.54556,14.294181],[-89.561758,14.312652],[-89.592057,14.317756],[-89.588311,14.343905],[-89.575564,14.350439],[-89.567508,14.358474],[-89.577795,14.370693],[-89.580083,14.388284],[-89.57883,14.402279],[-89.573753,14.415863],[-89.540967,14.414761],[-89.542414,14.410721],[-89.53318,14.394829],[-89.535425,14.382879],[-89.529287,14.378571],[-89.520496,14.382972],[-89.510826,14.406283],[-89.512702,14.415962],[-89.52124,14.426488],[-89.50546,14.437647],[-89.501323,14.44592],[-89.499934,14.475351],[-89.513249,14.483683],[-89.519945,14.492721],[-89.518942,14.501911],[-89.526217,14.509885],[-89.53908,14.512118],[-89.553293,14.524872],[-89.565127,14.511803],[-89.555616,14.50776],[-89.549055,14.48719],[-89.560836,14.478972],[-89.582463,14.474089],[-89.593153,14.482075],[-89.592036,14.503696],[-89.612721,14.502608],[-89.62355,14.512458],[-89.61952,14.544705],[-89.645316,14.557279],[-89.68158,14.529871]]]]},"properties":{"country_code":"GTM","country_name":"Guatemala","admin_level":1,"admin_type":"departamento","admin_code":"22","name":"Jutiapa","source_id":"03_Limites_departamentales.11"}},{"type":"Feature","geometry":{"type":"MultiPolygon","coordinates":[[[[-89.411799,15.855979],[-89.389689,15.874515],[-89.379901,15.888092],[-89.377048,15.906619],[-89.364563,15.91782],[-89.35509,15.920446],[-89.337467,15.919775],[-89.327001,15.913795],[-89.303629,15.917003],[-89.291267,15.91323],[-89.273751,15.914137],[-89.265417,15.92021],[-89.248475,15.915847],[-89.234706,15.908884],[-89.230188,15.896365],[-89.224175,15.891559],[-89.22576,15.895643],[-89.222026,15.956265],[-89.216474,16.06314],[-89.209356,16.171268],[-89.202942,16.258144],[-89.19821,16.338522],[-89.195341,16.373992],[-89.187989,16.48832],[-89.186674,16.520467],[-89.18102,16.607582],[-89.173352,16.705212],[-89.17002,16.766716],[-89.16021,16.904655],[-89.153657,17.011407],[-89.152235,17.049802],[-89.151556,17.142668],[-89.152958,17.2485],[-89.153271,17.327971],[-89.154275,17.357659],[-89.154754,17.5246],[-89.156659,17.745326],[-89.156886,17.815612],[-89.333333,17.816334],[-89.699992,17.817325],[-89.916667,17.817587],[-90.987686,17.815354],[-90.98728,17.278285],[-90.987261,17.251322],[-91.439075,17.2509],[-91.4384,17.234415],[-91.431534,17.217342],[-91.413574,17.20503],[-91.382087,17.204942],[-91.356613,17.189751],[-91.349136,17.176338],[-91.352455,17.162833],[-91.341331,17.157804],[-91.330093,17.180616],[-91.286636,17.177769],[-91.280556,17.179313],[-91.264915,17.167049],[-91.264542,17.157947],[-91.274093,17.139],[-91.269028,17.108652],[-91.257187,17.101019],[-91.234978,17.100846],[-91.225677,17.092597],[-91.218605,17.077091],[-91.215263,17.054371],[-91.191063,17.033669],[-91.178665,17.015638],[-91.156464,17.003243],[-91.13002,17.003952],[-91.121178,16.995628],[-91.122902,16.97592],[-91.107018,16.969103],[-91.092446,16.947603],[-91.07991,16.940726],[-91.064941,16.91993],[-91.075279,16.91106],[-91.060898,16.897493],[-91.051354,16.896406],[-91.001884,16.88134],[-90.992638,16.871036],[-90.980545,16.869005],[-90.98716,16.889374],[-90.985558,16.896765],[-90.972412,16.901374],[-90.957237,16.893773],[-90.955437,16.883168],[-90.9608,16.875708],[-90.972206,16.870252],[-90.970551,16.858544],[-90.953873,16.863777],[-90.933479,16.856495],[-90.933738,16.839755],[-90.920731,16.818348],[-90.892593,16.8235],[-90.875511,16.820907],[-90.860794,16.809183],[-90.857651,16.797336],[-90.848679,16.794483],[-90.823303,16.795696],[-90.807778,16.798552],[-90.801582,16.794567],[-90.805168,16.781334],[-90.798722,16.774508],[-90.776856,16.765032],[-90.76133,16.761417],[-90.758568,16.75165],[-90.72258,16.729157],[-90.713699,16.726101],[-90.708832,16.716526],[-90.71077,16.704737],[-90.683724,16.688662],[-90.680969,16.6721],[-90.675072,16.656283],[-90.668279,16.652852],[-90.656902,16.638647],[-90.662321,16.630055],[-90.655138,16.610713],[-90.653385,16.594625],[-90.665972,16.590174],[-90.666682,16.581586],[-90.656135,16.577251],[-90.645389,16.579035],[-90.638133,16.595228],[-90.625941,16.578159],[-90.646809,16.561168],[-90.648434,16.545472],[-90.642399,16.533319],[-90.645664,16.519138],[-90.635675,16.513828],[-90.61539,16.521469],[-90.605794,16.503211],[-90.608985,16.494579],[-90.622878,16.487867],[-90.631505,16.49002],[-90.633895,16.480617],[-90.623989,16.476924],[-90.614252,16.486948],[-90.594286,16.490425],[-90.592681,16.472934],[-90.585651,16.469623],[-90.54804,16.482196],[-90.546439,16.467247],[-90.530785,16.459235],[-90.524238,16.466172],[-90.510982,16.470257],[-90.499242,16.463784],[-90.496447,16.454229],[-90.486465,16.460778],[-90.477841,16.457233],[-90.48527,16.423867],[-90.471058,16.425021],[-90.459881,16.42109],[-90.442873,16.424862],[-90.419879,16.424777],[-90.412062,16.407436],[-90.401523,16.40851],[-90.398645,16.416137],[-90.38779,16.412202],[-90.39003,16.403264],[-90.399292,16.400418],[-90.398022,16.3867],[-90.386293,16.37791],[-90.370891,16.370657],[-90.373052,16.361488],[-90.382949,16.362727],[-90.388291,16.372439],[-90.396991,16.374679],[-90.405774,16.368518],[-90.400355,16.350252],[-90.385752,16.346392],[-90.413166,16.325609],[-90.409281,16.314722],[-90.415868,16.305382],[-90.435617,16.305292],[-90.433127,16.293732],[-90.441707,16.284969],[-90.422967,16.260304],[-90.429152,16.254527],[-90.441116,16.261947],[-90.449892,16.259542],[-90.455081,16.243938],[-90.444311,16.246536],[-90.429458,16.234973],[-90.449501,16.226791],[-90.454388,16.222265],[-90.457582,16.206853],[-90.453898,16.186239],[-90.430276,16.176503],[-90.426218,16.162441],[-90.445832,16.155894],[-90.451515,16.146745],[-90.430289,16.139996],[-90.431991,16.117649],[-90.45172,16.124975],[-90.458299,16.111683],[-90.454119,16.09261],[-90.433589,16.106379],[-90.434747,16.096837],[-90.446994,16.082523],[-90.444495,16.072842],[-90.215393,16.043751],[-90.181147,16.037998],[-90.157175,16.031813],[-90.127184,16.021741],[-90.101403,16.032849],[-90.107754,16.036017],[-90.098036,16.052149],[-90.078241,16.053619],[-90.071092,16.0651],[-90.051578,16.047262],[-90.06215,16.020321],[-90.049677,16.016974],[-90.049485,15.996357],[-90.04373,15.992353],[-90.034932,16.015773],[-90.025889,16.00739],[-90.015212,16.010672],[-90.010837,16.000966],[-89.998249,15.998532],[-89.977245,16.007423],[-89.961814,16.003088],[-89.967662,15.988295],[-89.962857,15.980928],[-89.948417,15.977803],[-89.932105,15.964664],[-89.91471,15.967529],[-89.908063,15.962199],[-89.890215,15.962494],[-89.883958,15.942091],[-89.867932,15.92406],[-89.872405,15.91935],[-89.855853,15.905388],[-89.847661,15.909634],[-89.838686,15.906489],[-89.821745,15.910214],[-89.794897,15.908061],[-89.792818,15.915641],[-89.781559,15.922756],[-89.759663,15.921574],[-89.748854,15.941013],[-89.748017,15.950866],[-89.740271,15.959088],[-89.721565,15.966569],[-89.702523,15.96126],[-89.699019,15.976048],[-89.685177,15.980542],[-89.678683,15.97159],[-89.661388,15.97953],[-89.652253,15.973197],[-89.64899,15.98583],[-89.636486,16.000792],[-89.638741,16.012921],[-89.633053,16.017064],[-89.619878,16.016937],[-89.616388,16.010381],[-89.596195,16.020243],[-89.584538,16.010552],[-89.567666,16.029303],[-89.548501,16.032468],[-89.549516,16.040303],[-89.525007,16.051575],[-89.520693,16.044466],[-89.502139,16.04171],[-89.500424,16.001088],[-89.500533,15.940029],[-89.499897,15.845501],[-89.476626,15.860943],[-89.467577,15.861501],[-89.456908,15.847589],[-89.439398,15.85023],[-89.427386,15.859168],[-89.411799,15.855979]]]]},"properties":{"country_code":"GTM","country_name":"Guatemala","admin_level":1,"admin_type":"departamento","admin_code":"17","name":"Petén","source_id":"03_Limites_departamentales.12"}},{"type":"Feature","geometry":{"type":"MultiPolygon","coordinates":[[[[-91.568391,15.225242],[-91.585752,15.17109],[-91.627155,15.148359],[-91.662077,15.147028],[-91.685306,15.138445],[-91.687115,15.128066],[-91.702965,15.108933],[-91.700462,15.09502],[-91.68369,15.071772],[-91.676238,15.068911],[-91.67178,15.059447],[-91.660032,15.053068],[-91.669399,15.007816],[-91.672502,15.000539],[-91.677173,14.96751],[-91.674569,14.955692],[-91.681394,14.945972],[-91.697083,14.936567],[-91.704479,14.92838],[-91.725539,14.922968],[-91.72425,14.916916],[-91.713006,14.906753],[-91.71281,14.899284],[-91.722401,14.892754],[-91.734274,14.893393],[-91.740591,14.880754],[-91.753276,14.876788],[-91.756906,14.860504],[-91.773045,14.832163],[-91.771571,14.822559],[-91.7796,14.815256],[-91.77765,14.797092],[-91.781232,14.765244],[-91.78635,14.755186],[-91.788089,14.7406],[-91.799655,14.732104],[-91.81816,14.731265],[-91.823417,14.723331],[-91.836673,14.716529],[-91.849828,14.720703],[-91.880193,14.716839],[-91.908899,14.722071],[-91.927385,14.729424],[-91.962054,14.715133],[-91.985302,14.712265],[-92.008752,14.717536],[-92.024612,14.717731],[-92.048452,14.708806],[-92.068796,14.683356],[-92.077483,14.687234],[-92.087009,14.678365],[-92.091047,14.661713],[-92.101456,14.660501],[-92.116217,14.640196],[-92.139265,14.618711],[-92.088322,14.592265],[-92.083637,14.597181],[-92.053161,14.586514],[-92.052143,14.567586],[-92.019125,14.54719],[-92.006138,14.544525],[-91.991621,14.536045],[-91.968703,14.533396],[-91.951431,14.528938],[-91.921223,14.528707],[-91.899218,14.510609],[-91.888981,14.506802],[-91.878754,14.513293],[-91.856542,14.504829],[-91.847881,14.498252],[-91.831639,14.493056],[-91.805564,14.493983],[-91.798739,14.5036],[-91.799506,14.516256],[-91.795374,14.531908],[-91.786744,14.538329],[-91.78072,14.563658],[-91.785857,14.573006],[-91.783805,14.585277],[-91.777813,14.592797],[-91.754448,14.588093],[-91.751928,14.604187],[-91.753565,14.623272],[-91.748701,14.644652],[-91.743121,14.64986],[-91.732137,14.6743],[-91.727765,14.665959],[-91.714152,14.660794],[-91.703258,14.688609],[-91.679422,14.709535],[-91.665259,14.711806],[-91.667653,14.685587],[-91.681728,14.641374],[-91.672961,14.640917],[-91.66508,14.652871],[-91.65751,14.648946],[-91.659038,14.636079],[-91.65393,14.619108],[-91.653355,14.606482],[-91.637956,14.619554],[-91.635151,14.634165],[-91.626501,14.641799],[-91.625756,14.652752],[-91.608457,14.653019],[-91.611486,14.633721],[-91.605354,14.626257],[-91.595275,14.629833],[-91.588866,14.646608],[-91.5657,14.651126],[-91.548021,14.670317],[-91.533277,14.683097],[-91.516494,14.684609],[-91.504381,14.696084],[-91.490058,14.705308],[-91.483206,14.71968],[-91.472279,14.725237],[-91.462294,14.737666],[-91.446097,14.743735],[-91.444603,14.760467],[-91.438577,14.768415],[-91.408087,14.800209],[-91.404214,14.821838],[-91.422479,14.848144],[-91.445942,14.862088],[-91.44048,14.877688],[-91.440445,14.890874],[-91.457719,14.894976],[-91.476161,14.893167],[-91.488339,14.884158],[-91.499155,14.883846],[-91.504295,14.89052],[-91.526841,14.945393],[-91.54714,14.93974],[-91.528992,14.958503],[-91.541413,14.987729],[-91.539844,15.00021],[-91.543923,15.037024],[-91.549058,15.112009],[-91.511451,15.145186],[-91.519802,15.206686],[-91.568391,15.225242]]]]},"properties":{"country_code":"GTM","country_name":"Guatemala","admin_level":1,"admin_type":"departamento","admin_code":"09","name":"Quetzaltenango","source_id":"03_Limites_departamentales.13"}},{"type":"Feature","geometry":{"type":"MultiPolygon","coordinates":[[[[-90.444495,16.072842],[-91.107565,16.073356],[-91.111981,16.062278],[-91.10717,16.051768],[-91.118256,16.042141],[-91.124929,16.023623],[-91.129522,16.00084],[-91.106929,15.992034],[-91.094605,15.968641],[-91.062027,15.969377],[-91.067426,15.945091],[-91.047067,15.935818],[-91.051758,15.915802],[-91.059332,15.917935],[-91.069291,15.884212],[-91.092645,15.799896],[-91.143476,15.831199],[-91.152536,15.830161],[-91.147448,15.818612],[-91.15517,15.808233],[-91.167897,15.800685],[-91.152705,15.789078],[-91.139665,15.774748],[-91.157795,15.750354],[-91.158138,15.715446],[-91.168279,15.710898],[-91.167375,15.697327],[-91.184384,15.692375],[-91.193622,15.680382],[-91.201344,15.675966],[-91.204804,15.665334],[-91.216743,15.655859],[-91.216466,15.643795],[-91.230311,15.651142],[-91.233673,15.63288],[-91.253929,15.619759],[-91.26763,15.621403],[-91.281155,15.614763],[-91.283393,15.595904],[-91.273859,15.584402],[-91.319516,15.554557],[-91.319513,15.462446],[-91.305226,15.427708],[-91.240445,15.378384],[-91.171259,15.385522],[-91.157951,15.361573],[-91.174117,15.342284],[-91.182232,15.317597],[-91.182736,15.304474],[-91.188212,15.284478],[-91.207714,15.28023],[-91.210097,15.285195],[-91.229675,15.285592],[-91.249568,15.271935],[-91.272098,15.267945],[-91.289,15.279835],[-91.295253,15.270548],[-91.304671,15.266993],[-91.313592,15.272446],[-91.32615,15.268634],[-91.325448,15.258808],[-91.319244,15.253655],[-91.311275,15.245609],[-91.318434,15.227116],[-91.316512,15.209703],[-91.308225,15.193739],[-91.287761,15.165971],[-91.270967,15.159866],[-91.260461,15.161157],[-91.248477,15.143851],[-91.240288,15.143299],[-91.227841,15.122873],[-91.208039,15.114851],[-91.213383,15.101063],[-91.230337,15.103923],[-91.248087,15.111553],[-91.253116,15.12597],[-91.260951,15.125581],[-91.265226,15.049097],[-91.272877,15.035153],[-91.264093,15.021634],[-91.266675,15.000583],[-91.254727,14.980866],[-91.236893,14.984395],[-91.232648,14.978249],[-91.242015,14.961126],[-91.241027,14.945796],[-91.219327,14.946029],[-91.176482,14.895517],[-91.161912,14.893578],[-91.156796,14.885598],[-91.157529,14.873705],[-91.146053,14.865651],[-91.134797,14.869171],[-91.126453,14.856992],[-91.10517,14.840001],[-91.101413,14.830153],[-91.12424,14.816979],[-91.136028,14.800713],[-91.116711,14.784955],[-91.102965,14.782678],[-91.095421,14.799731],[-91.084565,14.814168],[-91.072314,14.804972],[-91.049757,14.808706],[-91.021076,14.822399],[-91.023485,14.83173],[-91.035998,14.829949],[-91.044851,14.842703],[-91.042719,14.85755],[-91.024956,14.879568],[-91.028,14.908599],[-91.014834,14.930217],[-90.975088,14.934786],[-90.962815,14.924786],[-90.951386,14.921277],[-90.945792,14.924688],[-90.932384,14.919854],[-90.91141,14.923136],[-90.904641,14.928656],[-90.887454,14.933905],[-90.874526,14.934642],[-90.855032,14.930691],[-90.84806,14.925966],[-90.824467,14.92505],[-90.811289,14.921605],[-90.796343,14.922017],[-90.780876,14.919174],[-90.771223,14.926861],[-90.75314,14.923528],[-90.74194,14.91464],[-90.714509,14.913719],[-90.708841,14.907443],[-90.690516,14.908339],[-90.662794,14.888436],[-90.649932,14.884464],[-90.646475,14.889648],[-90.622033,14.884689],[-90.61561,14.913763],[-90.636138,14.926117],[-90.642727,14.947308],[-90.659908,14.964771],[-90.655493,14.986847],[-90.658141,15.002787],[-90.697973,15.032652],[-90.755466,15.074154],[-90.806752,15.155221],[-90.813479,15.223543],[-90.813701,15.236026],[-90.792327,15.23959],[-90.782579,15.2243],[-90.77543,15.221924],[-90.7552,15.222215],[-90.733083,15.265251],[-90.753149,15.277847],[-90.744667,15.301171],[-90.716957,15.284435],[-90.677701,15.349495],[-90.674422,15.349182],[-90.634175,15.310145],[-90.630389,15.249295],[-90.614526,15.247926],[-90.555984,15.246561],[-90.546405,15.213628],[-90.534228,15.215089],[-90.526973,15.228125],[-90.527895,15.234398],[-90.51416,15.247784],[-90.513429,15.253451],[-90.491036,15.280228],[-90.490636,15.288599],[-90.481924,15.296641],[-90.481183,15.307926],[-90.485698,15.322944],[-90.500788,15.33282],[-90.527727,15.33976],[-90.540726,15.340859],[-90.562028,15.338615],[-90.581843,15.342734],[-90.599545,15.33955],[-90.621627,15.345273],[-90.653116,15.35116],[-90.662965,15.35897],[-90.683435,15.36075],[-90.695315,15.365094],[-90.713836,15.388175],[-90.717749,15.418847],[-90.702058,15.442186],[-90.67713,15.43996],[-90.662765,15.434329],[-90.650432,15.446026],[-90.65107,15.467129],[-90.64384,15.472529],[-90.639989,15.482905],[-90.631361,15.486233],[-90.618602,15.49919],[-90.604207,15.504228],[-90.607938,15.537269],[-90.613255,15.554298],[-90.622847,15.572841],[-90.631954,15.574005],[-90.64162,15.581495],[-90.632511,15.591447],[-90.630573,15.609896],[-90.637915,15.611231],[-90.645279,15.62276],[-90.645303,15.632656],[-90.657689,15.638053],[-90.655609,15.647614],[-90.667804,15.649677],[-90.686183,15.647262],[-90.714949,15.657093],[-90.720255,15.657148],[-90.754859,15.667052],[-90.774225,15.675313],[-90.793605,15.678019],[-90.791158,15.689196],[-90.778966,15.701179],[-90.77116,15.704076],[-90.783302,15.717971],[-90.778835,15.723768],[-90.783467,15.740856],[-90.793953,15.746804],[-90.803788,15.739929],[-90.814336,15.74235],[-90.809242,15.767156],[-90.794933,15.773987],[-90.794282,15.781177],[-90.776736,15.797631],[-90.779161,15.812927],[-90.773122,15.816522],[-90.768156,15.828843],[-90.753496,15.832774],[-90.730048,15.859106],[-90.738717,15.867838],[-90.736878,15.880413],[-90.745206,15.884932],[-90.758164,15.882761],[-90.752113,15.900602],[-90.752558,15.915206],[-90.737136,15.928156],[-90.734642,15.942729],[-90.747108,15.942837],[-90.758527,15.96124],[-90.748194,15.96743],[-90.736146,15.969813],[-90.73635,15.981277],[-90.725943,15.981712],[-90.713582,15.973218],[-90.703363,15.972231],[-90.706842,15.995025],[-90.694673,15.994189],[-90.696066,16.007377],[-90.701717,16.015121],[-90.68231,16.021651],[-90.669416,16.038542],[-90.658523,16.035381],[-90.634271,16.039712],[-90.622768,16.028016],[-90.61343,16.023582],[-90.600906,16.03601],[-90.596206,16.03253],[-90.594009,16.013818],[-90.577679,16.006751],[-90.568693,15.998031],[-90.557981,15.994267],[-90.536896,16.002136],[-90.523377,15.990887],[-90.499963,15.992259],[-90.490103,16.012056],[-90.47941,16.017071],[-90.474363,16.004311],[-90.465683,16.004254],[-90.459233,16.013358],[-90.445552,16.016959],[-90.440533,16.02881],[-90.426112,16.032722],[-90.434116,16.044119],[-90.427701,16.055497],[-90.419189,16.062166],[-90.42384,16.068326],[-90.4362,16.062437],[-90.444495,16.072842]]]]},"properties":{"country_code":"GTM","country_name":"Guatemala","admin_level":1,"admin_type":"departamento","admin_code":"14","name":"Quiché","source_id":"03_Limites_departamentales.14"}},{"type":"Feature","geometry":{"type":"MultiPolygon","coordinates":[[[[-92.052143,14.567586],[-92.085886,14.538957],[-92.100063,14.533954],[-92.11418,14.505368],[-92.134626,14.507707],[-92.140148,14.494822],[-92.148865,14.48936],[-92.167216,14.488284],[-92.143699,14.472412],[-92.10287,14.440371],[-92.038774,14.392075],[-92.001419,14.36255],[-91.950906,14.319167],[-91.917862,14.292948],[-91.842184,14.24023],[-91.817532,14.220207],[-91.786608,14.189992],[-91.737062,14.166352],[-91.70762,14.149433],[-91.666311,14.123262],[-91.659592,14.145458],[-91.652875,14.153524],[-91.648024,14.169099],[-91.643501,14.17229],[-91.642096,14.18894],[-91.624309,14.205849],[-91.621405,14.215998],[-91.621387,14.241968],[-91.624246,14.267766],[-91.609171,14.294748],[-91.60709,14.313077],[-91.594955,14.322635],[-91.592406,14.338731],[-91.600116,14.357797],[-91.595936,14.359935],[-91.591828,14.376693],[-91.593777,14.389512],[-91.59358,14.389695],[-91.584848,14.403799],[-91.584765,14.423871],[-91.58072,14.443404],[-91.582534,14.475047],[-91.579502,14.48592],[-91.587378,14.525566],[-91.588154,14.537237],[-91.577972,14.558298],[-91.573598,14.575251],[-91.573526,14.575604],[-91.561415,14.590004],[-91.54186,14.628328],[-91.556578,14.636415],[-91.556596,14.636426],[-91.555258,14.642997],[-91.538918,14.672048],[-91.526903,14.675127],[-91.516494,14.684609],[-91.533277,14.683097],[-91.548021,14.670317],[-91.5657,14.651126],[-91.588866,14.646608],[-91.595275,14.629833],[-91.605354,14.626257],[-91.611486,14.633721],[-91.608457,14.653019],[-91.625756,14.652752],[-91.626501,14.641799],[-91.635151,14.634165],[-91.637956,14.619554],[-91.653355,14.606482],[-91.65393,14.619108],[-91.659038,14.636079],[-91.65751,14.648946],[-91.66508,14.652871],[-91.672961,14.640917],[-91.681728,14.641374],[-91.667653,14.685587],[-91.665259,14.711806],[-91.679422,14.709535],[-91.703258,14.688609],[-91.714152,14.660794],[-91.727765,14.665959],[-91.732137,14.6743],[-91.743121,14.64986],[-91.748701,14.644652],[-91.753565,14.623272],[-91.751928,14.604187],[-91.754448,14.588093],[-91.777813,14.592797],[-91.783805,14.585277],[-91.785857,14.573006],[-91.78072,14.563658],[-91.786744,14.538329],[-91.795374,14.531908],[-91.799506,14.516256],[-91.798739,14.5036],[-91.805564,14.493983],[-91.831639,14.493056],[-91.847881,14.498252],[-91.856542,14.504829],[-91.878754,14.513293],[-91.888981,14.506802],[-91.899218,14.510609],[-91.921223,14.528707],[-91.951431,14.528938],[-91.968703,14.533396],[-91.991621,14.536045],[-92.006138,14.544525],[-92.019125,14.54719],[-92.052143,14.567586]]]]},"properties":{"country_code":"GTM","country_name":"Guatemala","admin_level":1,"admin_type":"departamento","admin_code":"11","name":"Retalhuleu","source_id":"03_Limites_departamentales.15"}},{"type":"Feature","geometry":{"type":"MultiPolygon","coordinates":[[[[-90.880807,14.469781],[-90.871002,14.459999],[-90.856719,14.45208],[-90.839569,14.433879],[-90.832664,14.420654],[-90.81702,14.401423],[-90.816367,14.386847],[-90.79166,14.418524],[-90.780626,14.438829],[-90.768216,14.450358],[-90.746743,14.46095],[-90.738902,14.45984],[-90.72365,14.449874],[-90.707519,14.433683],[-90.693735,14.434062],[-90.676865,14.427855],[-90.66806,14.434937],[-90.674749,14.450544],[-90.659808,14.462713],[-90.673527,14.479863],[-90.671973,14.49708],[-90.664749,14.511775],[-90.666198,14.523424],[-90.657586,14.541451],[-90.657845,14.552577],[-90.653321,14.563425],[-90.66463,14.569803],[-90.66702,14.582272],[-90.653097,14.582888],[-90.630176,14.56892],[-90.631353,14.579429],[-90.61423,14.580008],[-90.613641,14.589089],[-90.629191,14.593567],[-90.637129,14.600951],[-90.638257,14.611245],[-90.63269,14.617311],[-90.64325,14.625494],[-90.638505,14.652285],[-90.647661,14.658494],[-90.673143,14.667478],[-90.675832,14.700011],[-90.693124,14.703126],[-90.699663,14.694141],[-90.711092,14.690712],[-90.734562,14.694465],[-90.743501,14.709315],[-90.758953,14.724093],[-90.761915,14.710403],[-90.771211,14.704027],[-90.773162,14.689025],[-90.76197,14.66057],[-90.792508,14.623646],[-90.791243,14.610061],[-90.795715,14.595978],[-90.806605,14.577625],[-90.826208,14.558654],[-90.851625,14.563273],[-90.860698,14.538244],[-90.87174,14.53159],[-90.880807,14.469781]]]]},"properties":{"country_code":"GTM","country_name":"Guatemala","admin_level":1,"admin_type":"departamento","admin_code":"03","name":"Sacatepéquez","source_id":"03_Limites_departamentales.16"}},{"type":"Feature","geometry":{"type":"MultiPolygon","coordinates":[[[[-92.117756,15.422824],[-92.161882,15.341803],[-92.210711,15.259372],[-92.17948,15.218471],[-92.140722,15.172075],[-92.060124,15.070375],[-92.072924,15.060515],[-92.070214,15.045815],[-92.07753,15.041551],[-92.08106,15.026782],[-92.098616,15.010283],[-92.133355,15.010175],[-92.13939,14.994321],[-92.150672,14.984268],[-92.144413,14.975624],[-92.148137,14.945216],[-92.142771,14.93887],[-92.146718,14.926464],[-92.141624,14.918142],[-92.144176,14.909211],[-92.136866,14.895738],[-92.149343,14.867629],[-92.169952,14.860497],[-92.179949,14.848331],[-92.182653,14.828624],[-92.175736,14.815249],[-92.17818,14.804665],[-92.171192,14.793244],[-92.168417,14.778416],[-92.162028,14.775628],[-92.160704,14.762479],[-92.171033,14.754638],[-92.169651,14.745225],[-92.157332,14.737005],[-92.147529,14.716329],[-92.146772,14.69766],[-92.1427,14.690213],[-92.146406,14.679778],[-92.144852,14.664079],[-92.147352,14.65483],[-92.165692,14.638397],[-92.175482,14.633123],[-92.180221,14.619634],[-92.175382,14.613257],[-92.181947,14.589327],[-92.193813,14.563874],[-92.202668,14.563055],[-92.215036,14.555113],[-92.217313,14.539787],[-92.226734,14.537188],[-92.198958,14.508942],[-92.167216,14.488284],[-92.148865,14.48936],[-92.140148,14.494822],[-92.134626,14.507707],[-92.11418,14.505368],[-92.100063,14.533954],[-92.085886,14.538957],[-92.052143,14.567586],[-92.053161,14.586514],[-92.083637,14.597181],[-92.088322,14.592265],[-92.139265,14.618711],[-92.116217,14.640196],[-92.101456,14.660501],[-92.091047,14.661713],[-92.087009,14.678365],[-92.077483,14.687234],[-92.068796,14.683356],[-92.048452,14.708806],[-92.024612,14.717731],[-92.008752,14.717536],[-91.985302,14.712265],[-91.962054,14.715133],[-91.927385,14.729424],[-91.908899,14.722071],[-91.880193,14.716839],[-91.849828,14.720703],[-91.836673,14.716529],[-91.823417,14.723331],[-91.81816,14.731265],[-91.799655,14.732104],[-91.788089,14.7406],[-91.78635,14.755186],[-91.781232,14.765244],[-91.77765,14.797092],[-91.7796,14.815256],[-91.771571,14.822559],[-91.773045,14.832163],[-91.756906,14.860504],[-91.753276,14.876788],[-91.740591,14.880754],[-91.734274,14.893393],[-91.722401,14.892754],[-91.71281,14.899284],[-91.713006,14.906753],[-91.72425,14.916916],[-91.725539,14.922968],[-91.704479,14.92838],[-91.697083,14.936567],[-91.681394,14.945972],[-91.674569,14.955692],[-91.677173,14.96751],[-91.672502,15.000539],[-91.669399,15.007816],[-91.660032,15.053068],[-91.67178,15.059447],[-91.676238,15.068911],[-91.68369,15.071772],[-91.700462,15.09502],[-91.702965,15.108933],[-91.687115,15.128066],[-91.685306,15.138445],[-91.662077,15.147028],[-91.627155,15.148359],[-91.585752,15.17109],[-91.568391,15.225242],[-91.587379,15.236473],[-91.622069,15.235463],[-91.653355,15.27491],[-91.664043,15.291775],[-91.682759,15.305184],[-91.710195,15.338869],[-91.729776,15.343194],[-91.743193,15.342245],[-91.759249,15.345153],[-91.772589,15.341002],[-91.796416,15.329807],[-91.822156,15.329513],[-91.881195,15.361267],[-91.924095,15.331714],[-91.937113,15.321119],[-91.956333,15.320041],[-92.008812,15.264032],[-92.076764,15.276713],[-92.077758,15.286342],[-92.077467,15.351604],[-92.078053,15.391655],[-92.079756,15.396623],[-92.099563,15.401511],[-92.107245,15.40628],[-92.117756,15.422824]]]]},"properties":{"country_code":"GTM","country_name":"Guatemala","admin_level":1,"admin_type":"departamento","admin_code":"12","name":"San Marcos","source_id":"03_Limites_departamentales.17"}},{"type":"Feature","geometry":{"type":"MultiPolygon","coordinates":[[[[-90.659219,13.924085],[-90.633797,13.921238],[-90.584768,13.913168],[-90.532143,13.902446],[-90.488336,13.889428],[-90.444863,13.874794],[-90.400513,13.857837],[-90.3385,13.831771],[-90.306429,13.816963],[-90.260874,13.79829],[-90.23841,13.78753],[-90.241704,13.799108],[-90.236199,13.806853],[-90.241176,13.830254],[-90.210967,13.827747],[-90.204926,13.838454],[-90.22332,13.841497],[-90.210977,13.865027],[-90.202746,13.869446],[-90.210832,13.882738],[-90.221142,13.885317],[-90.22064,13.898114],[-90.228705,13.904665],[-90.233259,13.920948],[-90.24977,13.927919],[-90.263224,13.928649],[-90.274962,13.935828],[-90.284361,13.946331],[-90.295095,13.97146],[-90.295487,13.986166],[-90.281959,14.000819],[-90.249633,14.0064],[-90.245065,14.00911],[-90.215562,14.008598],[-90.195471,13.990687],[-90.165652,13.989615],[-90.164813,13.971164],[-90.138315,13.993804],[-90.129511,14.004601],[-90.180484,14.026992],[-90.181715,14.028957],[-90.145142,14.063983],[-90.142945,14.076684],[-90.100171,14.06784],[-90.08234,14.065646],[-90.063579,14.112143],[-90.076254,14.126547],[-90.090311,14.154896],[-90.078895,14.159884],[-90.084412,14.167999],[-90.078205,14.185526],[-90.090883,14.201056],[-90.127302,14.219561],[-90.165189,14.237248],[-90.193664,14.260618],[-90.20607,14.250016],[-90.211472,14.25576],[-90.207223,14.266485],[-90.212923,14.287283],[-90.208355,14.298144],[-90.196007,14.291343],[-90.188073,14.300971],[-90.18575,14.333315],[-90.133811,14.330851],[-90.135078,14.348887],[-90.115153,14.349549],[-90.10175,14.347344],[-90.079947,14.338768],[-90.065994,14.33634],[-90.071391,14.360166],[-90.078413,14.363629],[-90.076931,14.385986],[-90.067024,14.408821],[-90.05791,14.419361],[-90.121515,14.46371],[-90.126077,14.485903],[-90.143341,14.489335],[-90.162773,14.488593],[-90.179971,14.484421],[-90.18619,14.489808],[-90.202066,14.483728],[-90.236247,14.483547],[-90.242366,14.466208],[-90.254487,14.475451],[-90.266647,14.479915],[-90.268004,14.49378],[-90.275697,14.502155],[-90.296568,14.499379],[-90.299921,14.503458],[-90.30975,14.499808],[-90.321961,14.486403],[-90.332321,14.492319],[-90.346144,14.478813],[-90.353533,14.478022],[-90.369837,14.483939],[-90.385554,14.474548],[-90.394148,14.477524],[-90.403752,14.487094],[-90.410398,14.455796],[-90.416031,14.443998],[-90.416059,14.433398],[-90.42361,14.416535],[-90.430356,14.417055],[-90.432373,14.403439],[-90.454916,14.399372],[-90.454862,14.386139],[-90.449029,14.373387],[-90.450405,14.364508],[-90.486693,14.360335],[-90.495309,14.339751],[-90.495369,14.325931],[-90.514248,14.305508],[-90.507133,14.297149],[-90.510961,14.286702],[-90.527119,14.277235],[-90.528527,14.267991],[-90.568832,14.256103],[-90.579856,14.242879],[-90.588897,14.241662],[-90.589349,14.254477],[-90.5962,14.256966],[-90.603803,14.232285],[-90.594211,14.230467],[-90.596117,14.217763],[-90.602971,14.207085],[-90.599786,14.188946],[-90.606792,14.17017],[-90.629842,14.146985],[-90.643842,14.135003],[-90.643833,14.123681],[-90.638278,14.108974],[-90.650419,14.095624],[-90.647955,14.084387],[-90.635425,14.064591],[-90.636771,14.049836],[-90.662587,14.049868],[-90.659543,14.027643],[-90.67523,14.020947],[-90.659219,13.924085]]]]},"properties":{"country_code":"GTM","country_name":"Guatemala","admin_level":1,"admin_type":"departamento","admin_code":"06","name":"Santa Rosa","source_id":"03_Limites_departamentales.18"}},{"type":"Feature","geometry":{"type":"MultiPolygon","coordinates":[[[[-91.072314,14.804972],[-91.084565,14.814168],[-91.095421,14.799731],[-91.102965,14.782678],[-91.116711,14.784955],[-91.136028,14.800713],[-91.12424,14.816979],[-91.101413,14.830153],[-91.10517,14.840001],[-91.126453,14.856992],[-91.134797,14.869171],[-91.146053,14.865651],[-91.157529,14.873705],[-91.156796,14.885598],[-91.161912,14.893578],[-91.176482,14.895517],[-91.206814,14.882607],[-91.211583,14.873736],[-91.211937,14.859898],[-91.244995,14.852295],[-91.262766,14.844045],[-91.268484,14.855678],[-91.281759,14.862316],[-91.303091,14.856298],[-91.307299,14.874921],[-91.337252,14.874691],[-91.363516,14.854724],[-91.361739,14.849348],[-91.404214,14.821838],[-91.408087,14.800209],[-91.438577,14.768415],[-91.444603,14.760467],[-91.446097,14.743735],[-91.462294,14.737666],[-91.472279,14.725237],[-91.483206,14.71968],[-91.490058,14.705308],[-91.489161,14.690529],[-91.481632,14.643982],[-91.484634,14.634872],[-91.506475,14.599224],[-91.491846,14.593544],[-91.488715,14.600126],[-91.45059,14.599111],[-91.445574,14.613624],[-91.43306,14.626547],[-91.43039,14.63524],[-91.408559,14.641765],[-91.39599,14.635588],[-91.383161,14.63322],[-91.372513,14.638459],[-91.364854,14.637294],[-91.357964,14.644512],[-91.342183,14.630781],[-91.320455,14.645707],[-91.315459,14.629986],[-91.331523,14.619535],[-91.306322,14.602268],[-91.294367,14.597916],[-91.292554,14.590216],[-91.296607,14.571763],[-91.282727,14.56368],[-91.268531,14.540051],[-91.276044,14.530121],[-91.268719,14.521923],[-91.26306,14.532784],[-91.252586,14.544052],[-91.240387,14.552349],[-91.223963,14.559358],[-91.209876,14.57701],[-91.198332,14.578651],[-91.163941,14.553314],[-91.150993,14.548226],[-91.13473,14.54657],[-91.124877,14.520806],[-91.119044,14.525101],[-91.116084,14.540986],[-91.116458,14.588543],[-91.110635,14.626556],[-91.078299,14.683685],[-91.076331,14.711343],[-91.085007,14.724662],[-91.075599,14.742981],[-91.086045,14.753133],[-91.084382,14.768499],[-91.072314,14.804972]],[[-91.172223,14.744138],[-91.164047,14.74516],[-91.155959,14.732396],[-91.144255,14.729696],[-91.132618,14.717613],[-91.127016,14.699709],[-91.116851,14.693094],[-91.118775,14.679956],[-91.117512,14.659749],[-91.134558,14.648856],[-91.153116,14.654423],[-91.170272,14.673818],[-91.192051,14.671959],[-91.218527,14.661288],[-91.230884,14.647778],[-91.231519,14.632503],[-91.25095,14.608714],[-91.25689,14.624015],[-91.240091,14.640583],[-91.236914,14.661722],[-91.241299,14.671832],[-91.267944,14.690368],[-91.281812,14.693355],[-91.2866,14.704843],[-91.28159,14.711929],[-91.261235,14.719433],[-91.232316,14.726958],[-91.209445,14.739072],[-91.172223,14.744138]]]]},"properties":{"country_code":"GTM","country_name":"Guatemala","admin_level":1,"admin_type":"departamento","admin_code":"07","name":"Sololá","source_id":"03_Limites_departamentales.19"}},{"type":"Feature","geometry":{"type":"MultiPolygon","coordinates":[[[[-91.124877,14.520806],[-91.13473,14.54657],[-91.150993,14.548226],[-91.163941,14.553314],[-91.198332,14.578651],[-91.209876,14.57701],[-91.223963,14.559358],[-91.240387,14.552349],[-91.252586,14.544052],[-91.26306,14.532784],[-91.268719,14.521923],[-91.276044,14.530121],[-91.268531,14.540051],[-91.282727,14.56368],[-91.296607,14.571763],[-91.292554,14.590216],[-91.294367,14.597916],[-91.306322,14.602268],[-91.331523,14.619535],[-91.315459,14.629986],[-91.320455,14.645707],[-91.342183,14.630781],[-91.357964,14.644512],[-91.364854,14.637294],[-91.372513,14.638459],[-91.383161,14.63322],[-91.39599,14.635588],[-91.408559,14.641765],[-91.43039,14.63524],[-91.43306,14.626547],[-91.445574,14.613624],[-91.45059,14.599111],[-91.488715,14.600126],[-91.491846,14.593544],[-91.506475,14.599224],[-91.484634,14.634872],[-91.481632,14.643982],[-91.489161,14.690529],[-91.490058,14.705308],[-91.504381,14.696084],[-91.516494,14.684609],[-91.526903,14.675127],[-91.538918,14.672048],[-91.555258,14.642997],[-91.556596,14.636426],[-91.556578,14.636415],[-91.54186,14.628328],[-91.561415,14.590004],[-91.573526,14.575604],[-91.573598,14.575251],[-91.577972,14.558298],[-91.588154,14.537237],[-91.587378,14.525566],[-91.579502,14.48592],[-91.582534,14.475047],[-91.58072,14.443404],[-91.584765,14.423871],[-91.584848,14.403799],[-91.59358,14.389695],[-91.593777,14.389512],[-91.591828,14.376693],[-91.595936,14.359935],[-91.600116,14.357797],[-91.592406,14.338731],[-91.594955,14.322635],[-91.60709,14.313077],[-91.609171,14.294748],[-91.624246,14.267766],[-91.621387,14.241968],[-91.621405,14.215998],[-91.624309,14.205849],[-91.642096,14.18894],[-91.643501,14.17229],[-91.648024,14.169099],[-91.652875,14.153524],[-91.659592,14.145458],[-91.666311,14.123262],[-91.595696,14.076756],[-91.538576,14.043494],[-91.530259,14.054422],[-91.53642,14.063715],[-91.529427,14.072255],[-91.53247,14.082926],[-91.52348,14.087245],[-91.508081,14.100397],[-91.500434,14.122902],[-91.487477,14.131566],[-91.483293,14.154071],[-91.460968,14.175306],[-91.447583,14.202199],[-91.445418,14.216101],[-91.449731,14.22407],[-91.447916,14.239705],[-91.44928,14.257061],[-91.453331,14.26565],[-91.461375,14.267838],[-91.453767,14.280222],[-91.454346,14.290939],[-91.464092,14.298773],[-91.460144,14.308372],[-91.449996,14.310903],[-91.444694,14.318802],[-91.434966,14.319494],[-91.430072,14.286263],[-91.420607,14.283439],[-91.396264,14.296276],[-91.380956,14.308645],[-91.368578,14.309741],[-91.363525,14.315415],[-91.369602,14.330993],[-91.36367,14.333688],[-91.356543,14.31808],[-91.327476,14.333405],[-91.313047,14.32036],[-91.296965,14.333509],[-91.283887,14.330746],[-91.281104,14.339235],[-91.266076,14.336722],[-91.272291,14.310106],[-91.267233,14.304701],[-91.199613,14.292733],[-91.217121,14.21324],[-91.216992,14.206656],[-91.178916,14.200465],[-91.180385,14.20847],[-91.168746,14.213394],[-91.164692,14.22508],[-91.153608,14.234404],[-91.150801,14.250453],[-91.154714,14.259119],[-91.151988,14.269762],[-91.154697,14.278282],[-91.144753,14.288832],[-91.146947,14.299892],[-91.139016,14.321591],[-91.130077,14.322337],[-91.126499,14.33447],[-91.128876,14.34598],[-91.12543,14.356475],[-91.134171,14.36395],[-91.135675,14.380481],[-91.1289,14.381934],[-91.115988,14.404832],[-91.101855,14.415479],[-91.097081,14.423849],[-91.093431,14.447455],[-91.09553,14.452957],[-91.128427,14.458242],[-91.119027,14.49537],[-91.124877,14.520806]]]]},"properties":{"country_code":"GTM","country_name":"Guatemala","admin_level":1,"admin_type":"departamento","admin_code":"10","name":"Suchitepéquez","source_id":"03_Limites_departamentales.20"}},{"type":"Feature","geometry":{"type":"MultiPolygon","coordinates":[[[[-91.511451,15.145186],[-91.549058,15.112009],[-91.543923,15.037024],[-91.539844,15.00021],[-91.541413,14.987729],[-91.528992,14.958503],[-91.54714,14.93974],[-91.526841,14.945393],[-91.504295,14.89052],[-91.499155,14.883846],[-91.488339,14.884158],[-91.476161,14.893167],[-91.457719,14.894976],[-91.440445,14.890874],[-91.44048,14.877688],[-91.445942,14.862088],[-91.422479,14.848144],[-91.404214,14.821838],[-91.361739,14.849348],[-91.363516,14.854724],[-91.337252,14.874691],[-91.307299,14.874921],[-91.303091,14.856298],[-91.281759,14.862316],[-91.268484,14.855678],[-91.262766,14.844045],[-91.244995,14.852295],[-91.211937,14.859898],[-91.211583,14.873736],[-91.206814,14.882607],[-91.176482,14.895517],[-91.219327,14.946029],[-91.241027,14.945796],[-91.242015,14.961126],[-91.232648,14.978249],[-91.236893,14.984395],[-91.254727,14.980866],[-91.266675,15.000583],[-91.264093,15.021634],[-91.272877,15.035153],[-91.265226,15.049097],[-91.260951,15.125581],[-91.253116,15.12597],[-91.248087,15.111553],[-91.230337,15.103923],[-91.213383,15.101063],[-91.208039,15.114851],[-91.227841,15.122873],[-91.240288,15.143299],[-91.248477,15.143851],[-91.260461,15.161157],[-91.270967,15.159866],[-91.287761,15.165971],[-91.308225,15.193739],[-91.316512,15.209703],[-91.318434,15.227116],[-91.311275,15.245609],[-91.319244,15.253655],[-91.327611,15.237746],[-91.345857,15.237021],[-91.350138,15.230907],[-91.359728,15.231705],[-91.381757,15.203451],[-91.387331,15.139981],[-91.468402,15.138046],[-91.494237,15.144527],[-91.511451,15.145186]]]]},"properties":{"country_code":"GTM","country_name":"Guatemala","admin_level":1,"admin_type":"departamento","admin_code":"08","name":"Totonicapán","source_id":"03_Limites_departamentales.21"}},{"type":"Feature","geometry":{"type":"MultiPolygon","coordinates":[[[[-89.851662,15.160301],[-89.863454,15.159642],[-89.871486,15.144533],[-89.898047,15.146851],[-89.89967,15.137585],[-89.838554,15.069973],[-89.815277,15.050186],[-89.78934,15.019053],[-89.793286,15.012448],[-89.811819,15.014457],[-89.837928,15.014438],[-89.867436,15.022704],[-89.871451,15.016631],[-89.855793,14.998393],[-89.846874,14.981896],[-89.851333,14.959616],[-89.836544,14.944907],[-89.830258,14.951518],[-89.818485,14.950778],[-89.815472,14.926317],[-89.81696,14.906272],[-89.841469,14.897313],[-89.853377,14.875611],[-89.86208,14.870844],[-89.861514,14.863253],[-89.844363,14.862455],[-89.820128,14.842466],[-89.823899,14.836221],[-89.82613,14.815154],[-89.812007,14.79643],[-89.812259,14.790495],[-89.784763,14.768405],[-89.775731,14.764408],[-89.76858,14.749482],[-89.749172,14.740891],[-89.729812,14.742715],[-89.720377,14.749962],[-89.711494,14.759432],[-89.703461,14.780491],[-89.705644,14.796246],[-89.712527,14.819258],[-89.706256,14.843641],[-89.696216,14.853914],[-89.666423,14.877162],[-89.627677,14.866493],[-89.590669,14.855015],[-89.568179,14.855989],[-89.510698,14.861238],[-89.501951,14.860656],[-89.488613,14.888678],[-89.466391,14.899253],[-89.445911,14.899134],[-89.427809,14.905124],[-89.37827,14.89348],[-89.361227,14.898012],[-89.324688,14.910662],[-89.314988,14.910066],[-89.281181,14.89347],[-89.259433,14.899454],[-89.253069,14.905666],[-89.229048,14.940645],[-89.22044,14.948919],[-89.200471,14.94672],[-89.191485,14.938678],[-89.179379,14.921373],[-89.171857,14.929425],[-89.173989,14.940508],[-89.163954,14.950339],[-89.162173,14.971156],[-89.157212,14.981452],[-89.178198,14.991471],[-89.184017,15.003036],[-89.17159,15.026706],[-89.173889,15.038566],[-89.161861,15.043262],[-89.153532,15.057332],[-89.154267,15.067081],[-89.174979,15.084644],[-89.177949,15.094796],[-89.186956,15.107097],[-89.179085,15.11358],[-89.182184,15.13328],[-89.188505,15.143937],[-89.195536,15.171548],[-89.212591,15.176754],[-89.21045,15.188386],[-89.174615,15.207097],[-89.175613,15.266296],[-89.187374,15.269535],[-89.192405,15.28197],[-89.20906,15.27367],[-89.217789,15.273048],[-89.222373,15.289291],[-89.22991,15.294643],[-89.241571,15.2919],[-89.257941,15.296867],[-89.266651,15.29271],[-89.290293,15.292618],[-89.305776,15.28513],[-89.306661,15.275131],[-89.325575,15.270915],[-89.33757,15.276334],[-89.347525,15.273092],[-89.359456,15.277112],[-89.382861,15.265854],[-89.395937,15.243116],[-89.408417,15.225478],[-89.421229,15.21457],[-89.458431,15.198302],[-89.494152,15.188185],[-89.510631,15.180225],[-89.544674,15.171725],[-89.560626,15.179655],[-89.591439,15.169014],[-89.613064,15.159591],[-89.626796,15.160601],[-89.653054,15.16626],[-89.657588,15.159574],[-89.672785,15.148285],[-89.66868,15.121202],[-89.674951,15.117212],[-89.685963,15.122873],[-89.694221,15.136235],[-89.710735,15.137493],[-89.720983,15.147214],[-89.729769,15.149403],[-89.747697,15.1422],[-89.755289,15.145704],[-89.769827,15.145225],[-89.775101,15.14892],[-89.78578,15.168227],[-89.803755,15.168423],[-89.808787,15.162348],[-89.824884,15.170725],[-89.851662,15.160301]]]]},"properties":{"country_code":"GTM","country_name":"Guatemala","admin_level":1,"admin_type":"departamento","admin_code":"19","name":"Zacapa","source_id":"03_Limites_departamentales.22"}}]}
