{"type":"FeatureCollection","features":[{"type":"Feature","properties":{"name":"Belice","note":"Diferendo Territorial Insular y Marítimo pendiente de resolver"},"geometry":{"type":"MultiLineString","coordinates":[[[-88.76357344154027,16.152369162676013],[-88.7557803876108,16.15037039347753],[-88.75213902696963,16.14339766891111],[-88.7627771531986,16.148274114529276],[-88.76357344154027,16.152369162676013]],[[-88.31789940673082,18.487326165046287],[-88.29501923326485,18.4554740849677],[-88.39422499469671,18.382563646617317],[-88.3876818408801,18.34030061821349],[-88.32072224426489,18.363526247420328],[-88.34433109138016,18.340397427180978],[-88.33521082914375,18.325810313266818],[-88.23922274209204,18.357778132602885],[-88.23365637672947,18.3375507614746],[-88.20455852052996,18.349533832154137],[-88.21857727506598,18.322452337520133],[-88.09827557885559,18.372638633944963],[-88.0929433924107,18.35257077163934],[-88.10343476956722,18.097420878582902],[-88.1534996388715,17.998894484083973],[-88.1519737512245,17.972809247091956],[-88.17654962619164,17.974220942826218],[-88.1714940922815,17.960413128955484],[-88.16161097830492,17.969316814960926],[-88.15105008768143,17.96758685641217],[-88.20486457826561,17.897429791147342],[-88.23261891812867,17.717814982412083],[-88.26943120540511,17.648709992516867],[-88.28738893826716,17.64000401280732],[-88.27862048981008,17.649986637693356],[-88.28936912618899,17.65283268365867],[-88.29334899859532,17.619359452793503],[-88.28856071113636,17.5608960266635],[-88.2395158228473,17.539167224471207],[-88.23066825049621,17.518578354331932],[-88.19902552680715,17.51963960810095],[-88.18215473903145,17.492865822122926],[-88.2057161843132,17.479233133521543],[-88.23307101511908,17.48871829558522],[-88.25141381106197,17.46686921907001],[-88.30709916476918,17.231947251977946],[-88.30064540291636,17.117884068369417],[-88.27894624698186,17.070564982496283],[-88.24589678724395,17.062545391430046],[-88.22077936122234,16.95724529185862],[-88.23046742699965,16.93745024747571],[-88.2791995341952,16.917899882611298],[-88.29080903673191,16.88842558301161],[-88.25474711642296,16.80499406809683],[-88.2770268102944,16.805327653544655],[-88.31259785665789,16.766697368687133],[-88.30040232580069,16.719036394272234],[-88.3096128537683,16.660713692466903],[-88.35221870312233,16.622272802529256],[-88.36432897427564,16.51284682653697],[-88.40040075501997,16.516811489658853],[-88.3914938459698,16.502060991344862],[-88.40132840237824,16.507585995873033],[-88.41934479146596,16.482409579666026],[-88.42213464596946,16.4552476302953],[-88.42971194359487,16.46913717996856],[-88.42046143458718,16.44450321234111],[-88.4371618206322,16.433274171842847],[-88.45000971180173,16.44688682350686],[-88.46563081647214,16.439045604956178],[-88.47039784292483,16.449957558424504],[-88.46614375628444,16.43782820110551],[-88.44813134053325,16.439532518006505],[-88.4501183105439,16.417824644196],[-88.45540930065722,16.433277664462523],[-88.46766048619548,16.428083191987877],[-88.46279783346367,16.41596599333154],[-88.44802361342278,16.416645339758016],[-88.45780019821939,16.40818804853756],[-88.43516319989719,16.408910268312596],[-88.47587401463052,16.399646595819743],[-88.4949572057882,16.339312361226934],[-88.51906212008551,16.347283044981737],[-88.54468040550489,16.3053142157705],[-88.58122904133108,16.297117248851784],[-88.57044029819097,16.283897538665556],[-88.58382886800301,16.258448810874743],[-88.6007344007693,16.252936129754342],[-88.57769861133153,16.28701093374594],[-88.58878750990907,16.318516063759695],[-88.60632422134191,16.32196099868792],[-88.60095937168985,16.338118761612282],[-88.61975610977414,16.329555607689908],[-88.60363839984524,16.309927816451733],[-88.61224626609551,16.295365788202222],[-88.65508132779787,16.289499519483012],[-88.67133729434065,16.305722374242034],[-88.64882947845621,16.350686743544816],[-88.68827771201306,16.354976903073403],[-88.66073970833857,16.346735691572096],[-88.66477650686791,16.319919474063123],[-88.69860513467516,16.33777146069215],[-88.70310809390928,16.32077786533275],[-88.68747977024192,16.313963837281577],[-88.69063832242888,16.28449802869712],[-88.6620445807908,16.277069548223928],[-88.73103993424633,16.23995344647338],[-88.7409368845045,16.264268722935395],[-88.74103612172892,16.234862626362716],[-88.7642701559083,16.23510323488655],[-88.74303051856333,16.189749793862834],[-88.76357344154027,16.152369162676013]],[[-88.76357344154027,16.152369162676013],[-88.7744063413402,16.13500830517534],[-88.75610911344165,16.14040906193841],[-88.79712249723848,16.11852159475294],[-88.81210611975614,16.080381242870097],[-88.8592485723321,16.06361090746311],[-88.8555114742335,16.03419410753295],[-88.92886534258481,15.986688428379539],[-88.91894587677376,15.892476001712227],[-89.01998802391785,15.893714576821907],[-89.01900798902447,15.909064919680716],[-89.04097984021693,15.913917552051723],[-89.04985863514057,15.901015672095276],[-89.05502226295748,15.916293049311149],[-89.07876750257597,15.896536481603727],[-89.10211918062411,15.91194691828624],[-89.11381927655526,15.896265986377669],[-89.1327865229392,15.906794113854689],[-89.14979401885311,15.896089674224935],[-89.17584705383562,15.913127315945498],[-89.2242207901538,15.891556911368319]],[[-89.15693544440994,17.81561212578999],[-89.15733590003586,17.93965952838961],[-89.13460666180106,17.974482491403332],[-89.0434111653954,18.006584868548174],[-89.00115822597486,17.987819970921457],[-88.98737926596435,17.94971687738937],[-88.94383731995217,17.960228165522413],[-88.9122408926843,17.91099945217953],[-88.8594483093971,17.893742413959913],[-88.85770387934949,17.924215177051376],[-88.78564841358568,17.97839301702468],[-88.76825254342978,18.029794200304323],[-88.71512278257453,18.05884156251571],[-88.71612325385402,18.10536554396689],[-88.67916603251001,18.15497208338668],[-88.69421496117599,18.179496117120514],[-88.61237178868228,18.22470972076251],[-88.60606257027057,18.28835617048858],[-88.54710944558411,18.35776626895148],[-88.51896765655063,18.461253163367836],[-88.47642288552218,18.492731090185853],[-88.44725388019278,18.474466621001746],[-88.40160549623455,18.495284773765245],[-88.37749353993354,18.477728821208462],[-88.31789940673082,18.487326165046287]]]}}]}